{
"type": "FeatureCollection",
"name": "SMPs-Amsterdam (Noord)",
"crs": { "type": "name", "properties": { "name": "urn:ogc:def:crs:OGC:1.3:CRS84" } },
"features": [
{ "type": "Feature", "properties": { "Wijk": "Tuindorp Buiksloot" }, "geometry": { "type": "Polygon", "coordinates": [ [ [ 4.924547, 52.395264 ], [ 4.924212, 52.394841 ], [ 4.924627, 52.393008 ], [ 4.924716, 52.392651 ], [ 4.925047, 52.39155 ], [ 4.925144, 52.391179 ], [ 4.927432, 52.391442 ], [ 4.927416, 52.391515 ], [ 4.928722, 52.391603 ], [ 4.92876, 52.391623 ], [ 4.930093, 52.391721 ], [ 4.931784, 52.391829 ], [ 4.932379, 52.391858 ], [ 4.932388, 52.391804 ], [ 4.933245, 52.391844 ], [ 4.933254, 52.391874 ], [ 4.933466, 52.392004 ], [ 4.93374, 52.392154 ], [ 4.933749, 52.392184 ], [ 4.933937, 52.392291 ], [ 4.933729, 52.392489 ], [ 4.933478, 52.392371 ], [ 4.933192, 52.392566 ], [ 4.933897, 52.392995 ], [ 4.933643, 52.393017 ], [ 4.924547, 52.395264 ] ] ] } },
{ "type": "Feature", "properties": { "Wijk": "Waterlandpleinbuurt" }, "geometry": { "type": "Polygon", "coordinates": [ [ [ 4.940938, 52.394468 ], [ 4.944212, 52.393493 ], [ 4.951605, 52.391292 ], [ 4.952429, 52.389831 ], [ 4.952429, 52.386721 ], [ 4.952429, 52.386309 ], [ 4.95391, 52.386748 ], [ 4.959986, 52.388209 ], [ 4.960056, 52.388236 ], [ 4.960123, 52.38828 ], [ 4.960234, 52.388433 ], [ 4.960304, 52.388491 ], [ 4.960365, 52.388522 ], [ 4.960445, 52.388547 ], [ 4.962965, 52.389071 ], [ 4.966862, 52.390001 ], [ 4.963548, 52.393891 ], [ 4.962814, 52.394743 ], [ 4.961982, 52.39565 ], [ 4.961668, 52.395973 ], [ 4.961232, 52.396401 ], [ 4.960517, 52.397063 ], [ 4.959711, 52.397756 ], [ 4.958961, 52.398361 ], [ 4.95863, 52.398614 ], [ 4.957664, 52.39932 ], [ 4.956568, 52.400064 ], [ 4.955712, 52.400613 ], [ 4.954919, 52.401093 ], [ 4.953966, 52.401648 ], [ 4.953185, 52.402079 ], [ 4.952566, 52.402409 ], [ 4.951803, 52.402799 ], [ 4.946564, 52.397908 ], [ 4.945764, 52.39775 ], [ 4.944787, 52.398066 ], [ 4.940938, 52.394468 ] ] ] } },
{ "type": "Feature", "properties": { "Wijk": "Oostzanerwerf" }, "geometry": { "type": "MultiPolygon", "coordinates": [ [ [ [ 4.858292, 52.418681 ], [ 4.858681, 52.418555 ], [ 4.857685, 52.417518 ], [ 4.857686, 52.417412 ], [ 4.857809, 52.41717 ], [ 4.857969, 52.417074 ], [ 4.862163, 52.415967 ], [ 4.862883, 52.416101 ], [ 4.863055, 52.416085 ], [ 4.863508, 52.415918 ], [ 4.864014, 52.415757 ], [ 4.864135, 52.415774 ], [ 4.864253, 52.415839 ], [ 4.864988, 52.416468 ], [ 4.865798, 52.41619 ], [ 4.867769, 52.41827 ], [ 4.869496, 52.417665 ], [ 4.870153, 52.41741 ], [ 4.870695, 52.417173 ], [ 4.872692, 52.416231 ], [ 4.87279, 52.416189 ], [ 4.873, 52.416119 ], [ 4.873225, 52.416069 ], [ 4.873341, 52.416051 ], [ 4.873459, 52.416039 ], [ 4.873698, 52.416032 ], [ 4.873817, 52.416036 ], [ 4.875014, 52.416129 ], [ 4.874996, 52.416233 ], [ 4.874993, 52.416364 ], [ 4.87503, 52.416543 ], [ 4.877939, 52.41886 ], [ 4.878013, 52.418909 ], [ 4.878145, 52.418968 ], [ 4.878244, 52.418997 ], [ 4.878403, 52.419021 ], [ 4.879269, 52.419086 ], [ 4.880621, 52.418332 ], [ 4.880821, 52.418209 ], [ 4.881049, 52.418082 ], [ 4.882097, 52.417579 ], [ 4.882677, 52.416977 ], [ 4.88327, 52.416674 ], [ 4.884561, 52.415763 ], [ 4.884741, 52.41562 ], [ 4.885642, 52.414837 ], [ 4.885712, 52.414797 ], [ 4.88582, 52.414756 ], [ 4.88591, 52.414736 ], [ 4.886005, 52.414725 ], [ 4.886164, 52.41473 ], [ 4.887619, 52.414875 ], [ 4.888194, 52.414831 ], [ 4.889076, 52.414908 ], [ 4.892451, 52.415515 ], [ 4.892579, 52.41551 ], [ 4.892681, 52.415485 ], [ 4.893317, 52.415195 ], [ 4.893426, 52.415174 ], [ 4.893524, 52.415176 ], [ 4.894181, 52.415258 ], [ 4.894277, 52.415278 ], [ 4.894414, 52.415338 ], [ 4.894808, 52.415599 ], [ 4.895192, 52.415787 ], [ 4.895915, 52.415895 ], [ 4.897849, 52.415291 ], [ 4.897975, 52.415881 ], [ 4.89806, 52.416098 ], [ 4.898138, 52.416185 ], [ 4.898055, 52.416217 ], [ 4.898079, 52.416254 ], [ 4.898318, 52.41649 ], [ 4.898372, 52.416561 ], [ 4.89838, 52.416597 ], [ 4.898364, 52.416643 ], [ 4.898277, 52.416736 ], [ 4.898233, 52.416836 ], [ 4.898248, 52.416867 ], [ 4.898402, 52.417671 ], [ 4.898446, 52.418295 ], [ 4.898497, 52.41863 ], [ 4.898492, 52.419149 ], [ 4.898581, 52.420569 ], [ 4.898571, 52.420569 ], [ 4.898667, 52.421109 ], [ 4.898596, 52.421556 ], [ 4.898607, 52.422023 ], [ 4.898766, 52.424199 ], [ 4.898746, 52.424462 ], [ 4.898457, 52.424515 ], [ 4.898389, 52.424521 ], [ 4.898413, 52.424584 ], [ 4.898374, 52.424578 ], [ 4.898352, 52.424577 ], [ 4.898318, 52.424585 ], [ 4.898091, 52.424629 ], [ 4.897965, 52.424656 ], [ 4.897737, 52.4247 ], [ 4.897556, 52.424739 ], [ 4.89744, 52.424762 ], [ 4.89738, 52.424776 ], [ 4.897146, 52.424814 ], [ 4.896867, 52.424881 ], [ 4.896729, 52.424898 ], [ 4.896536, 52.424933 ], [ 4.896421, 52.424944 ], [ 4.896331, 52.424958 ], [ 4.89624, 52.42497 ], [ 4.896158, 52.424984 ], [ 4.896083, 52.424999 ], [ 4.895999, 52.425013 ], [ 4.895905, 52.425035 ], [ 4.895747, 52.425052 ], [ 4.895516, 52.42509 ], [ 4.895367, 52.425104 ], [ 4.895178, 52.425134 ], [ 4.895075, 52.425146 ], [ 4.894989, 52.425159 ], [ 4.894903, 52.425171 ], [ 4.894788, 52.425183 ], [ 4.894695, 52.425198 ], [ 4.894644, 52.425202 ], [ 4.894397, 52.425237 ], [ 4.894197, 52.425256 ], [ 4.893909, 52.425289 ], [ 4.893747, 52.42531 ], [ 4.893654, 52.425318 ], [ 4.893608, 52.425327 ], [ 4.893541, 52.425336 ], [ 4.893447, 52.425344 ], [ 4.893336, 52.425352 ], [ 4.89317, 52.425374 ], [ 4.892987, 52.425389 ], [ 4.89269, 52.425424 ], [ 4.892465, 52.42545 ], [ 4.892302, 52.425458 ], [ 4.892219, 52.425466 ], [ 4.892108, 52.425468 ], [ 4.891977, 52.42548 ], [ 4.891623, 52.425518 ], [ 4.891562, 52.42552 ], [ 4.891483, 52.425529 ], [ 4.891359, 52.425539 ], [ 4.890877, 52.425572 ], [ 4.890699, 52.425582 ], [ 4.890598, 52.425589 ], [ 4.890437, 52.425597 ], [ 4.890104, 52.425617 ], [ 4.889947, 52.425624 ], [ 4.889697, 52.425634 ], [ 4.889485, 52.425637 ], [ 4.888928, 52.425636 ], [ 4.88875, 52.42563 ], [ 4.888601, 52.425628 ], [ 4.888306, 52.425619 ], [ 4.888161, 52.425619 ], [ 4.887575, 52.425578 ], [ 4.887584, 52.42557 ], [ 4.887452, 52.425567 ], [ 4.887054, 52.425564 ], [ 4.886878, 52.425565 ], [ 4.886802, 52.425567 ], [ 4.886613, 52.425587 ], [ 4.886455, 52.425594 ], [ 4.886223, 52.4256 ], [ 4.885913, 52.425612 ], [ 4.885844, 52.425614 ], [ 4.885643, 52.425615 ], [ 4.885297, 52.425613 ], [ 4.88482, 52.425603 ], [ 4.884659, 52.425597 ], [ 4.884429, 52.425594 ], [ 4.884278, 52.425585 ], [ 4.884006, 52.425571 ], [ 4.883688, 52.42555 ], [ 4.883539, 52.425541 ], [ 4.883391, 52.425527 ], [ 4.883279, 52.425519 ], [ 4.883051, 52.425514 ], [ 4.882989, 52.42551 ], [ 4.882979, 52.425512 ], [ 4.882973, 52.425515 ], [ 4.88283, 52.425646 ], [ 4.882727, 52.425731 ], [ 4.882636, 52.42579 ], [ 4.88258, 52.425825 ], [ 4.882507, 52.425867 ], [ 4.882463, 52.425889 ], [ 4.882427, 52.425904 ], [ 4.882367, 52.425927 ], [ 4.882268, 52.425955 ], [ 4.882219, 52.425966 ], [ 4.882103, 52.425988 ], [ 4.881936, 52.426014 ], [ 4.881879, 52.42602 ], [ 4.881815, 52.426023 ], [ 4.881736, 52.426022 ], [ 4.881643, 52.426012 ], [ 4.88152, 52.425988 ], [ 4.881261, 52.425928 ], [ 4.881216, 52.425919 ], [ 4.880884, 52.425844 ], [ 4.880737, 52.425816 ], [ 4.880662, 52.4258 ], [ 4.88062, 52.425793 ], [ 4.880474, 52.425772 ], [ 4.880408, 52.425764 ], [ 4.880328, 52.425754 ], [ 4.880164, 52.425737 ], [ 4.880009, 52.425723 ], [ 4.87964, 52.425695 ], [ 4.879415, 52.425687 ], [ 4.879263, 52.425689 ], [ 4.879129, 52.425692 ], [ 4.879001, 52.425697 ], [ 4.878806, 52.425709 ], [ 4.878665, 52.425722 ], [ 4.878377, 52.42576 ], [ 4.878011, 52.425817 ], [ 4.877871, 52.425844 ], [ 4.877673, 52.425884 ], [ 4.877471, 52.425934 ], [ 4.877346, 52.42597 ], [ 4.877157, 52.426027 ], [ 4.877019, 52.426071 ], [ 4.876822, 52.426139 ], [ 4.876746, 52.426168 ], [ 4.876683, 52.426189 ], [ 4.876581, 52.426229 ], [ 4.876619, 52.426236 ], [ 4.876543, 52.426266 ], [ 4.87624, 52.426399 ], [ 4.875974, 52.426547 ], [ 4.875722, 52.426707 ], [ 4.875485, 52.426877 ], [ 4.875251, 52.42706 ], [ 4.874735, 52.427525 ], [ 4.874483, 52.427739 ], [ 4.874228, 52.427972 ], [ 4.87412, 52.427965 ], [ 4.87384, 52.428511 ], [ 4.873666, 52.428836 ], [ 4.873551, 52.429058 ], [ 4.873441, 52.429295 ], [ 4.873404, 52.429387 ], [ 4.873373, 52.429447 ], [ 4.873344, 52.429487 ], [ 4.873255, 52.429544 ], [ 4.87313, 52.429554 ], [ 4.873054, 52.429557 ], [ 4.872951, 52.429556 ], [ 4.872823, 52.429549 ], [ 4.872744, 52.429544 ], [ 4.87268, 52.429608 ], [ 4.872651, 52.42961 ], [ 4.872558, 52.42968 ], [ 4.872453, 52.429746 ], [ 4.872344, 52.429807 ], [ 4.872232, 52.429864 ], [ 4.872109, 52.429919 ], [ 4.871855, 52.430007 ], [ 4.871729, 52.430045 ], [ 4.871568, 52.430082 ], [ 4.871429, 52.43011 ], [ 4.871295, 52.43013 ], [ 4.870965, 52.430189 ], [ 4.870748, 52.430396 ], [ 4.87063, 52.430369 ], [ 4.870605, 52.43036 ], [ 4.870555, 52.430333 ], [ 4.870279, 52.430138 ], [ 4.870248, 52.430116 ], [ 4.870205, 52.43007 ], [ 4.870166, 52.430047 ], [ 4.870103, 52.43002 ], [ 4.87005, 52.430006 ], [ 4.869981, 52.429992 ], [ 4.869941, 52.429969 ], [ 4.869902, 52.429932 ], [ 4.869866, 52.429859 ], [ 4.869836, 52.429826 ], [ 4.86981, 52.429808 ], [ 4.869746, 52.42977 ], [ 4.869705, 52.429747 ], [ 4.869487, 52.42989 ], [ 4.869015, 52.430207 ], [ 4.868969, 52.430236 ], [ 4.868921, 52.43026 ], [ 4.868751, 52.430317 ], [ 4.868372, 52.430422 ], [ 4.868197, 52.430466 ], [ 4.867936, 52.430525 ], [ 4.86779, 52.430545 ], [ 4.867535, 52.430577 ], [ 4.867346, 52.430603 ], [ 4.867134, 52.430628 ], [ 4.866998, 52.430645 ], [ 4.866864, 52.43066 ], [ 4.866734, 52.430671 ], [ 4.866699, 52.430673 ], [ 4.866593, 52.430672 ], [ 4.866412, 52.430666 ], [ 4.86624, 52.430658 ], [ 4.866191, 52.430658 ], [ 4.865972, 52.430679 ], [ 4.865865, 52.430666 ], [ 4.865723, 52.430644 ], [ 4.86558, 52.430619 ], [ 4.865557, 52.430614 ], [ 4.865394, 52.430565 ], [ 4.865265, 52.430544 ], [ 4.865238, 52.430543 ], [ 4.86518, 52.430546 ], [ 4.865145, 52.430542 ], [ 4.865021, 52.43055 ], [ 4.864999, 52.430546 ], [ 4.864937, 52.430526 ], [ 4.864886, 52.430514 ], [ 4.864214, 52.430376 ], [ 4.864195, 52.430265 ], [ 4.864006, 52.430224 ], [ 4.863966, 52.430217 ], [ 4.863861, 52.430191 ], [ 4.86286, 52.429971 ], [ 4.862685, 52.429942 ], [ 4.862813, 52.429624 ], [ 4.86271, 52.4296 ], [ 4.86274, 52.429509 ], [ 4.862752, 52.429443 ], [ 4.862752, 52.429379 ], [ 4.862744, 52.429315 ], [ 4.862714, 52.429199 ], [ 4.862676, 52.429106 ], [ 4.862627, 52.429017 ], [ 4.862569, 52.428921 ], [ 4.862519, 52.428846 ], [ 4.862461, 52.428777 ], [ 4.862402, 52.428719 ], [ 4.861279, 52.427765 ], [ 4.860892, 52.427433 ], [ 4.860569, 52.427145 ], [ 4.858396, 52.425255 ], [ 4.858251, 52.425124 ], [ 4.858196, 52.425067 ], [ 4.858153, 52.42502 ], [ 4.858118, 52.424979 ], [ 4.858054, 52.424888 ], [ 4.857994, 52.424789 ], [ 4.857955, 52.424718 ], [ 4.857931, 52.424665 ], [ 4.857886, 52.424534 ], [ 4.857863, 52.424458 ], [ 4.857841, 52.424364 ], [ 4.857825, 52.424276 ], [ 4.857819, 52.424181 ], [ 4.857824, 52.424079 ], [ 4.857837, 52.423985 ], [ 4.857854, 52.423899 ], [ 4.857873, 52.423831 ], [ 4.857914, 52.42373 ], [ 4.857946, 52.423667 ], [ 4.857991, 52.423591 ], [ 4.85804, 52.423515 ], [ 4.858209, 52.42328 ], [ 4.858487, 52.422915 ], [ 4.85949, 52.421612 ], [ 4.859672, 52.421372 ], [ 4.859731, 52.421281 ], [ 4.859814, 52.421129 ], [ 4.859862, 52.420992 ], [ 4.859889, 52.420786 ], [ 4.859892, 52.420651 ], [ 4.859874, 52.420516 ], [ 4.859838, 52.420383 ], [ 4.859759, 52.420177 ], [ 4.859638, 52.419957 ], [ 4.859563, 52.419861 ], [ 4.859477, 52.419768 ], [ 4.858777, 52.419125 ], [ 4.858292, 52.418681 ] ], [ [ 4.870862, 52.425193 ], [ 4.870808, 52.425021 ], [ 4.870695, 52.424838 ], [ 4.870503, 52.424669 ], [ 4.870187, 52.424502 ], [ 4.868415, 52.423838 ], [ 4.867667, 52.423399 ], [ 4.867303, 52.42316 ], [ 4.867002, 52.422933 ], [ 4.86669, 52.422601 ], [ 4.86421, 52.41939 ], [ 4.863468, 52.418367 ], [ 4.862227, 52.41675 ], [ 4.862109, 52.416709 ], [ 4.861937, 52.416692 ], [ 4.861759, 52.416721 ], [ 4.859218, 52.417388 ], [ 4.859018, 52.417484 ], [ 4.858898, 52.417589 ], [ 4.858617, 52.418031 ], [ 4.858646, 52.418146 ], [ 4.858753, 52.418277 ], [ 4.85942, 52.418947 ], [ 4.859984, 52.419373 ], [ 4.860472, 52.419957 ], [ 4.860627, 52.420013 ], [ 4.860789, 52.420014 ], [ 4.8609, 52.420176 ], [ 4.861009, 52.420536 ], [ 4.860933, 52.420646 ], [ 4.860619, 52.420732 ], [ 4.860578, 52.420992 ], [ 4.860257, 52.421611 ], [ 4.859891, 52.422115 ], [ 4.858745, 52.423541 ], [ 4.858552, 52.423819 ], [ 4.858503, 52.424004 ], [ 4.858499, 52.4243 ], [ 4.858534, 52.424509 ], [ 4.858692, 52.424771 ], [ 4.859067, 52.42512 ], [ 4.862298, 52.427894 ], [ 4.862901, 52.428285 ], [ 4.863443, 52.428891 ], [ 4.863489, 52.429065 ], [ 4.863484, 52.429477 ], [ 4.864838, 52.429691 ], [ 4.865113, 52.429711 ], [ 4.865493, 52.429677 ], [ 4.866007, 52.429587 ], [ 4.866959, 52.429284 ], [ 4.867169, 52.429174 ], [ 4.867907, 52.428937 ], [ 4.868228, 52.428673 ], [ 4.86842, 52.428447 ], [ 4.868862, 52.427818 ], [ 4.869041, 52.427795 ], [ 4.869662, 52.427121 ], [ 4.870629, 52.425742 ], [ 4.870846, 52.425392 ], [ 4.870862, 52.425193 ] ] ] ] } },
{ "type": "Feature", "properties": { "Wijk": "Banne Buiksloot" }, "geometry": { "type": "Polygon", "coordinates": [ [ [ 4.902411, 52.404053 ], [ 4.903219, 52.40352 ], [ 4.903896, 52.402966 ], [ 4.903982, 52.402907 ], [ 4.904079, 52.402855 ], [ 4.908339, 52.401233 ], [ 4.908776, 52.401079 ], [ 4.908872, 52.401023 ], [ 4.908921, 52.400948 ], [ 4.909452, 52.400923 ], [ 4.909804, 52.400894 ], [ 4.910327, 52.400835 ], [ 4.910672, 52.400785 ], [ 4.913254, 52.400834 ], [ 4.913314, 52.400829 ], [ 4.913439, 52.400797 ], [ 4.913566, 52.400779 ], [ 4.913638, 52.400777 ], [ 4.91375, 52.400788 ], [ 4.913999, 52.40077 ], [ 4.914837, 52.4009 ], [ 4.914796, 52.401113 ], [ 4.914804, 52.401114 ], [ 4.914751, 52.40128 ], [ 4.914729, 52.401497 ], [ 4.917595, 52.400996 ], [ 4.91892, 52.400645 ], [ 4.91922, 52.400582 ], [ 4.91987, 52.400403 ], [ 4.919969, 52.400372 ], [ 4.921508, 52.399776 ], [ 4.922107, 52.399258 ], [ 4.922195, 52.399291 ], [ 4.922311, 52.399355 ], [ 4.922439, 52.399455 ], [ 4.922532, 52.399568 ], [ 4.92272, 52.40006 ], [ 4.922832, 52.400491 ], [ 4.922935, 52.400812 ], [ 4.923103, 52.401239 ], [ 4.923801, 52.402242 ], [ 4.924983, 52.404341 ], [ 4.925153, 52.405265 ], [ 4.925156, 52.406413 ], [ 4.925247, 52.406721 ], [ 4.925407, 52.40702 ], [ 4.925592, 52.407284 ], [ 4.925754, 52.407481 ], [ 4.926844, 52.408446 ], [ 4.927221, 52.408742 ], [ 4.928187, 52.409327 ], [ 4.928547, 52.409756 ], [ 4.929027, 52.410382 ], [ 4.929468, 52.410847 ], [ 4.929658, 52.411013 ], [ 4.929799, 52.411134 ], [ 4.929956, 52.411247 ], [ 4.930128, 52.411352 ], [ 4.930314, 52.411447 ], [ 4.930512, 52.411533 ], [ 4.930722, 52.411608 ], [ 4.930412, 52.411943 ], [ 4.93039, 52.412082 ], [ 4.930343, 52.41209 ], [ 4.930263, 52.412118 ], [ 4.930179, 52.412153 ], [ 4.930097, 52.412196 ], [ 4.930064, 52.412206 ], [ 4.929993, 52.412241 ], [ 4.92997, 52.41225 ], [ 4.929936, 52.412259 ], [ 4.929911, 52.412272 ], [ 4.92989, 52.412286 ], [ 4.929868, 52.412298 ], [ 4.929812, 52.412315 ], [ 4.92972, 52.412355 ], [ 4.929657, 52.412376 ], [ 4.929632, 52.412388 ], [ 4.92959, 52.412414 ], [ 4.929476, 52.412451 ], [ 4.929403, 52.412483 ], [ 4.929338, 52.412518 ], [ 4.929246, 52.412559 ], [ 4.929205, 52.412581 ], [ 4.929118, 52.412612 ], [ 4.929034, 52.412651 ], [ 4.928921, 52.4127 ], [ 4.92886, 52.412729 ], [ 4.928779, 52.412778 ], [ 4.928725, 52.4128 ], [ 4.928662, 52.412834 ], [ 4.928627, 52.412847 ], [ 4.928569, 52.412877 ], [ 4.928537, 52.41289 ], [ 4.928446, 52.412932 ], [ 4.928388, 52.412965 ], [ 4.928273, 52.413007 ], [ 4.928216, 52.413037 ], [ 4.928174, 52.413055 ], [ 4.928144, 52.413063 ], [ 4.92811, 52.413075 ], [ 4.928046, 52.413109 ], [ 4.927943, 52.413154 ], [ 4.927904, 52.413177 ], [ 4.927876, 52.413189 ], [ 4.927606, 52.413292 ], [ 4.927483, 52.413358 ], [ 4.927386, 52.413404 ], [ 4.927338, 52.413424 ], [ 4.927312, 52.413438 ], [ 4.927229, 52.41347 ], [ 4.927132, 52.413514 ], [ 4.927046, 52.413548 ], [ 4.926956, 52.413589 ], [ 4.926881, 52.413618 ], [ 4.926789, 52.413663 ], [ 4.926684, 52.413708 ], [ 4.92664, 52.413731 ], [ 4.926564, 52.413763 ], [ 4.926493, 52.4138 ], [ 4.926355, 52.413859 ], [ 4.926189, 52.413935 ], [ 4.926132, 52.413966 ], [ 4.926063, 52.413995 ], [ 4.925964, 52.414042 ], [ 4.925839, 52.414095 ], [ 4.925782, 52.414125 ], [ 4.92574, 52.414141 ], [ 4.925696, 52.414153 ], [ 4.925546, 52.414213 ], [ 4.925502, 52.414236 ], [ 4.925477, 52.414268 ], [ 4.925186, 52.414404 ], [ 4.925083, 52.41447 ], [ 4.92441, 52.414794 ], [ 4.923463, 52.415244 ], [ 4.922061, 52.415808 ], [ 4.922034, 52.415821 ], [ 4.921938, 52.415872 ], [ 4.921718, 52.41597 ], [ 4.921607, 52.416024 ], [ 4.921544, 52.416052 ], [ 4.921495, 52.416078 ], [ 4.921458, 52.416095 ], [ 4.921371, 52.41613 ], [ 4.921268, 52.416166 ], [ 4.921234, 52.41618 ], [ 4.921155, 52.416222 ], [ 4.921107, 52.416244 ], [ 4.921016, 52.416278 ], [ 4.920897, 52.416328 ], [ 4.920852, 52.416353 ], [ 4.920804, 52.416388 ], [ 4.920781, 52.416412 ], [ 4.920767, 52.416422 ], [ 4.920728, 52.416455 ], [ 4.920711, 52.416476 ], [ 4.920686, 52.416498 ], [ 4.920679, 52.416503 ], [ 4.920663, 52.416506 ], [ 4.920614, 52.416508 ], [ 4.920554, 52.416518 ], [ 4.920543, 52.416524 ], [ 4.920533, 52.416552 ], [ 4.920522, 52.416566 ], [ 4.920456, 52.416608 ], [ 4.919826, 52.4161 ], [ 4.919259, 52.415618 ], [ 4.917453, 52.414139 ], [ 4.915334, 52.412363 ], [ 4.912757, 52.41023 ], [ 4.912625, 52.410077 ], [ 4.91146, 52.409594 ], [ 4.9106, 52.409337 ], [ 4.909041, 52.408016 ], [ 4.907391, 52.407898 ], [ 4.907376, 52.407754 ], [ 4.907315, 52.407615 ], [ 4.906615, 52.406552 ], [ 4.906475, 52.406378 ], [ 4.906301, 52.406216 ], [ 4.906054, 52.406041 ], [ 4.90523, 52.405601 ], [ 4.902684, 52.404256 ], [ 4.902411, 52.404053 ] ] ] } },
{ "type": "Feature", "properties": { "Wijk": "Nieuwendammerdijk/Buiksloterdijk" }, "geometry": { "type": "Polygon", "coordinates": [ [ [ 4.922311, 52.399355 ], [ 4.922195, 52.399291 ], [ 4.922107, 52.399258 ], [ 4.921508, 52.399776 ], [ 4.919969, 52.400372 ], [ 4.91987, 52.400403 ], [ 4.91922, 52.400582 ], [ 4.91892, 52.400645 ], [ 4.917595, 52.400996 ], [ 4.914729, 52.401497 ], [ 4.914751, 52.40128 ], [ 4.914804, 52.401114 ], [ 4.914796, 52.401113 ], [ 4.914837, 52.4009 ], [ 4.915154, 52.400943 ], [ 4.91544, 52.400947 ], [ 4.915657, 52.400927 ], [ 4.9161, 52.400858 ], [ 4.916498, 52.400773 ], [ 4.919581, 52.400021 ], [ 4.919769, 52.39996 ], [ 4.919915, 52.399894 ], [ 4.920807, 52.399395 ], [ 4.920926, 52.399376 ], [ 4.921129, 52.399377 ], [ 4.921213, 52.399359 ], [ 4.921266, 52.399338 ], [ 4.921329, 52.399296 ], [ 4.921423, 52.399211 ], [ 4.921544, 52.399074 ], [ 4.922289, 52.398271 ], [ 4.922511, 52.398013 ], [ 4.92263, 52.39784 ], [ 4.923057, 52.397098 ], [ 4.923248, 52.396668 ], [ 4.923525, 52.395905 ], [ 4.92355, 52.395633 ], [ 4.923631, 52.395444 ], [ 4.923686, 52.39522 ], [ 4.924082, 52.39386 ], [ 4.924106, 52.393814 ], [ 4.924149, 52.39378 ], [ 4.924269, 52.393737 ], [ 4.924112, 52.393461 ], [ 4.924612, 52.391392 ], [ 4.924632, 52.391319 ], [ 4.924653, 52.391307 ], [ 4.924609, 52.391185 ], [ 4.924608, 52.391152 ], [ 4.924633, 52.391109 ], [ 4.924759, 52.390668 ], [ 4.925061, 52.390699 ], [ 4.925181, 52.390697 ], [ 4.926444, 52.390896 ], [ 4.926444, 52.39089 ], [ 4.927014, 52.390974 ], [ 4.927774, 52.391073 ], [ 4.928598, 52.39115 ], [ 4.929234, 52.391204 ], [ 4.930341, 52.391282 ], [ 4.931546, 52.391348 ], [ 4.931545, 52.391353 ], [ 4.931669, 52.39136 ], [ 4.932746, 52.391389 ], [ 4.932932, 52.391387 ], [ 4.932934, 52.391376 ], [ 4.93306, 52.391385 ], [ 4.933057, 52.39141 ], [ 4.93322, 52.391428 ], [ 4.933407, 52.391411 ], [ 4.933417, 52.39145 ], [ 4.933553, 52.391438 ], [ 4.933543, 52.3914 ], [ 4.933724, 52.391379 ], [ 4.933764, 52.391369 ], [ 4.934085, 52.391346 ], [ 4.934093, 52.391382 ], [ 4.934209, 52.391378 ], [ 4.934807, 52.391281 ], [ 4.938404, 52.390773 ], [ 4.939629, 52.389945 ], [ 4.938371, 52.386734 ], [ 4.944534, 52.385639 ], [ 4.944738, 52.386097 ], [ 4.945227, 52.386023 ], [ 4.945534, 52.385986 ], [ 4.945721, 52.38594 ], [ 4.945932, 52.385859 ], [ 4.946765, 52.385738 ], [ 4.946856, 52.385742 ], [ 4.94694, 52.385764 ], [ 4.947005, 52.385803 ], [ 4.947059, 52.38587 ], [ 4.947101, 52.385901 ], [ 4.947169, 52.385929 ], [ 4.947254, 52.385942 ], [ 4.948167, 52.385873 ], [ 4.949051, 52.385833 ], [ 4.949679, 52.385821 ], [ 4.949972, 52.385823 ], [ 4.950634, 52.385856 ], [ 4.95087, 52.38588 ], [ 4.951062, 52.385913 ], [ 4.951241, 52.385956 ], [ 4.952429, 52.386309 ], [ 4.952429, 52.386721 ], [ 4.952072, 52.386692 ], [ 4.94981, 52.386623 ], [ 4.949245, 52.386728 ], [ 4.948318, 52.386777 ], [ 4.948087, 52.386825 ], [ 4.948098, 52.386834 ], [ 4.947943, 52.386878 ], [ 4.947818, 52.386969 ], [ 4.947925, 52.387039 ], [ 4.947727, 52.387102 ], [ 4.947601, 52.387107 ], [ 4.947545, 52.387122 ], [ 4.946494, 52.387864 ], [ 4.946318, 52.387998 ], [ 4.945904, 52.388353 ], [ 4.945037, 52.389036 ], [ 4.944969, 52.389185 ], [ 4.944742, 52.389306 ], [ 4.944476, 52.389566 ], [ 4.944365, 52.38965 ], [ 4.944111, 52.389793 ], [ 4.943716, 52.39 ], [ 4.943492, 52.39011 ], [ 4.942845, 52.390398 ], [ 4.942172, 52.390889 ], [ 4.941922, 52.391035 ], [ 4.941806, 52.391083 ], [ 4.941671, 52.391123 ], [ 4.941188, 52.391211 ], [ 4.94103, 52.391249 ], [ 4.940753, 52.391307 ], [ 4.940322, 52.391382 ], [ 4.940223, 52.39141 ], [ 4.939598, 52.391513 ], [ 4.939486, 52.391528 ], [ 4.939435, 52.391489 ], [ 4.938618, 52.391645 ], [ 4.938318, 52.391805 ], [ 4.938011, 52.391949 ], [ 4.936883, 52.392412 ], [ 4.936642, 52.39248 ], [ 4.935917, 52.392604 ], [ 4.93575, 52.392653 ], [ 4.935654, 52.3927 ], [ 4.935021, 52.393082 ], [ 4.934389, 52.393002 ], [ 4.934148, 52.392991 ], [ 4.933897, 52.392995 ], [ 4.933192, 52.392566 ], [ 4.933478, 52.392371 ], [ 4.933729, 52.392489 ], [ 4.933937, 52.392291 ], [ 4.933749, 52.392184 ], [ 4.93374, 52.392154 ], [ 4.933466, 52.392004 ], [ 4.933254, 52.391874 ], [ 4.933245, 52.391844 ], [ 4.932388, 52.391804 ], [ 4.932379, 52.391858 ], [ 4.931784, 52.391829 ], [ 4.930093, 52.391721 ], [ 4.92876, 52.391623 ], [ 4.928722, 52.391603 ], [ 4.927416, 52.391515 ], [ 4.927432, 52.391442 ], [ 4.925144, 52.391179 ], [ 4.925047, 52.39155 ], [ 4.924716, 52.392651 ], [ 4.924627, 52.393008 ], [ 4.924212, 52.394841 ], [ 4.924547, 52.395264 ], [ 4.924838, 52.395617 ], [ 4.923839, 52.396802 ], [ 4.923605, 52.397191 ], [ 4.923103, 52.398085 ], [ 4.92275, 52.398675 ], [ 4.922311, 52.399355 ] ] ] } },
{ "type": "Feature", "properties": { "Wijk": "Noordelijke IJ-oevers-West" }, "geometry": { "type": "Polygon", "coordinates": [ [ [ 4.865798, 52.41619 ], [ 4.866602, 52.415914 ], [ 4.86568, 52.414634 ], [ 4.86792, 52.413589 ], [ 4.868146, 52.413557 ], [ 4.870082, 52.412601 ], [ 4.87095, 52.413295 ], [ 4.872004, 52.412805 ], [ 4.871057, 52.412062 ], [ 4.872669, 52.411082 ], [ 4.874914, 52.409548 ], [ 4.877436, 52.411493 ], [ 4.879046, 52.410703 ], [ 4.877448, 52.409468 ], [ 4.876618, 52.408777 ], [ 4.876564, 52.408703 ], [ 4.879819, 52.407181 ], [ 4.880019, 52.407338 ], [ 4.880155, 52.407199 ], [ 4.880424, 52.407143 ], [ 4.8802, 52.406993 ], [ 4.880481, 52.406863 ], [ 4.880228, 52.406657 ], [ 4.88179, 52.405912 ], [ 4.883208, 52.406527 ], [ 4.884114, 52.406093 ], [ 4.883759, 52.405879 ], [ 4.88529, 52.405235 ], [ 4.887399, 52.406945 ], [ 4.889163, 52.406094 ], [ 4.885936, 52.403501 ], [ 4.888705, 52.402223 ], [ 4.889182, 52.402583 ], [ 4.889711, 52.402014 ], [ 4.889756, 52.401928 ], [ 4.890196, 52.401744 ], [ 4.890491, 52.401653 ], [ 4.891936, 52.40096 ], [ 4.891951, 52.400796 ], [ 4.891558, 52.399779 ], [ 4.89122, 52.398786 ], [ 4.891329, 52.398769 ], [ 4.891617, 52.398687 ], [ 4.891792, 52.398758 ], [ 4.892102, 52.39875 ], [ 4.892114, 52.398865 ], [ 4.894852, 52.398783 ], [ 4.895271, 52.398746 ], [ 4.895619, 52.398751 ], [ 4.895729, 52.399069 ], [ 4.896083, 52.399046 ], [ 4.896372, 52.399256 ], [ 4.896872, 52.399305 ], [ 4.897074, 52.399396 ], [ 4.897137, 52.399441 ], [ 4.897749, 52.398935 ], [ 4.896974, 52.398237 ], [ 4.896678, 52.397193 ], [ 4.896622, 52.396837 ], [ 4.896616, 52.396655 ], [ 4.896666, 52.396315 ], [ 4.896804, 52.396036 ], [ 4.896307, 52.395902 ], [ 4.89654, 52.395611 ], [ 4.896821, 52.395662 ], [ 4.897342, 52.394669 ], [ 4.897828, 52.393994 ], [ 4.897559, 52.39401 ], [ 4.897492, 52.393985 ], [ 4.897467, 52.393879 ], [ 4.897954, 52.392293 ], [ 4.898161, 52.391842 ], [ 4.898355, 52.391267 ], [ 4.89821, 52.391246 ], [ 4.898579, 52.389842 ], [ 4.897944, 52.389782 ], [ 4.900063, 52.38397 ], [ 4.901148, 52.38389 ], [ 4.901928, 52.383198 ], [ 4.902102, 52.383077 ], [ 4.906006, 52.38484 ], [ 4.906175, 52.384928 ], [ 4.906328, 52.385025 ], [ 4.906507, 52.385167 ], [ 4.906621, 52.385283 ], [ 4.906716, 52.385405 ], [ 4.907141, 52.38607 ], [ 4.907192, 52.38619 ], [ 4.907213, 52.386272 ], [ 4.907224, 52.386355 ], [ 4.90722, 52.386479 ], [ 4.907193, 52.386602 ], [ 4.907161, 52.386683 ], [ 4.906072, 52.388863 ], [ 4.905959, 52.389235 ], [ 4.905901, 52.389528 ], [ 4.905886, 52.389823 ], [ 4.905914, 52.390117 ], [ 4.905984, 52.390409 ], [ 4.906097, 52.390696 ], [ 4.906251, 52.390976 ], [ 4.906445, 52.391246 ], [ 4.906678, 52.391504 ], [ 4.907433, 52.39219 ], [ 4.908563, 52.393328 ], [ 4.909564, 52.39295 ], [ 4.910887, 52.392858 ], [ 4.912738, 52.392146 ], [ 4.912824, 52.392244 ], [ 4.912886, 52.392348 ], [ 4.912923, 52.392457 ], [ 4.912935, 52.392568 ], [ 4.91285, 52.393215 ], [ 4.912807, 52.393385 ], [ 4.912746, 52.393553 ], [ 4.912677, 52.393696 ], [ 4.912592, 52.39384 ], [ 4.911999, 52.394708 ], [ 4.910672, 52.396987 ], [ 4.910606, 52.397074 ], [ 4.910523, 52.397154 ], [ 4.91043, 52.397224 ], [ 4.910317, 52.397289 ], [ 4.910204, 52.39734 ], [ 4.909179, 52.397742 ], [ 4.90986, 52.3984 ], [ 4.909882, 52.398432 ], [ 4.909891, 52.398473 ], [ 4.909881, 52.398514 ], [ 4.909141, 52.399805 ], [ 4.908921, 52.400948 ], [ 4.908872, 52.401023 ], [ 4.908776, 52.401079 ], [ 4.908339, 52.401233 ], [ 4.904079, 52.402855 ], [ 4.903982, 52.402907 ], [ 4.903896, 52.402966 ], [ 4.903219, 52.40352 ], [ 4.902411, 52.404053 ], [ 4.902116, 52.403784 ], [ 4.900816, 52.402304 ], [ 4.900273, 52.401539 ], [ 4.900195, 52.401475 ], [ 4.894615, 52.404145 ], [ 4.89393, 52.404435 ], [ 4.893513, 52.404625 ], [ 4.893276, 52.404929 ], [ 4.893223, 52.405023 ], [ 4.893172, 52.405161 ], [ 4.89302, 52.406368 ], [ 4.892972, 52.40653 ], [ 4.892884, 52.406703 ], [ 4.892773, 52.406853 ], [ 4.892644, 52.406986 ], [ 4.892548, 52.407066 ], [ 4.892369, 52.40719 ], [ 4.891632, 52.407615 ], [ 4.890513, 52.408196 ], [ 4.890365, 52.408271 ], [ 4.890308, 52.408279 ], [ 4.890261, 52.40827 ], [ 4.890114, 52.408332 ], [ 4.890116, 52.408383 ], [ 4.890097, 52.408409 ], [ 4.890066, 52.408431 ], [ 4.886099, 52.41031 ], [ 4.886085, 52.410318 ], [ 4.886049, 52.410403 ], [ 4.885955, 52.410409 ], [ 4.88589, 52.410426 ], [ 4.884978, 52.41085 ], [ 4.884147, 52.411212 ], [ 4.882885, 52.411813 ], [ 4.882309, 52.412072 ], [ 4.881862, 52.412303 ], [ 4.881891, 52.412317 ], [ 4.880511, 52.412979 ], [ 4.880132, 52.413191 ], [ 4.879444, 52.413603 ], [ 4.879412, 52.413648 ], [ 4.879416, 52.413701 ], [ 4.87945, 52.41375 ], [ 4.879551, 52.413835 ], [ 4.879222, 52.413992 ], [ 4.879191, 52.413992 ], [ 4.878198, 52.414456 ], [ 4.878168, 52.414459 ], [ 4.877977, 52.414399 ], [ 4.877947, 52.4144 ], [ 4.875609, 52.415502 ], [ 4.875399, 52.415626 ], [ 4.875227, 52.415771 ], [ 4.8751, 52.415932 ], [ 4.875047, 52.416035 ], [ 4.875014, 52.416129 ], [ 4.873817, 52.416036 ], [ 4.873698, 52.416032 ], [ 4.873459, 52.416039 ], [ 4.873341, 52.416051 ], [ 4.873225, 52.416069 ], [ 4.873, 52.416119 ], [ 4.87279, 52.416189 ], [ 4.872692, 52.416231 ], [ 4.870695, 52.417173 ], [ 4.870153, 52.41741 ], [ 4.869496, 52.417665 ], [ 4.867769, 52.41827 ], [ 4.865798, 52.41619 ] ] ] } },
{ "type": "Feature", "properties": { "Wijk": "Tuindorp Oostzaan" }, "geometry": { "type": "Polygon", "coordinates": [ [ [ 4.897849, 52.415291 ], [ 4.895915, 52.415895 ], [ 4.895192, 52.415787 ], [ 4.894808, 52.415599 ], [ 4.894414, 52.415338 ], [ 4.894277, 52.415278 ], [ 4.894181, 52.415258 ], [ 4.893524, 52.415176 ], [ 4.893426, 52.415174 ], [ 4.893317, 52.415195 ], [ 4.892681, 52.415485 ], [ 4.892579, 52.41551 ], [ 4.892451, 52.415515 ], [ 4.889076, 52.414908 ], [ 4.888194, 52.414831 ], [ 4.887619, 52.414875 ], [ 4.886164, 52.41473 ], [ 4.886005, 52.414725 ], [ 4.88591, 52.414736 ], [ 4.88582, 52.414756 ], [ 4.885712, 52.414797 ], [ 4.885642, 52.414837 ], [ 4.884741, 52.41562 ], [ 4.884561, 52.415763 ], [ 4.88327, 52.416674 ], [ 4.882677, 52.416977 ], [ 4.882097, 52.417579 ], [ 4.881049, 52.418082 ], [ 4.880821, 52.418209 ], [ 4.880621, 52.418332 ], [ 4.879269, 52.419086 ], [ 4.878403, 52.419021 ], [ 4.878244, 52.418997 ], [ 4.878145, 52.418968 ], [ 4.878013, 52.418909 ], [ 4.877939, 52.41886 ], [ 4.87503, 52.416543 ], [ 4.874993, 52.416364 ], [ 4.874996, 52.416233 ], [ 4.875014, 52.416129 ], [ 4.875047, 52.416035 ], [ 4.8751, 52.415932 ], [ 4.875227, 52.415771 ], [ 4.875399, 52.415626 ], [ 4.875609, 52.415502 ], [ 4.877947, 52.4144 ], [ 4.877977, 52.414399 ], [ 4.878168, 52.414459 ], [ 4.878198, 52.414456 ], [ 4.879191, 52.413992 ], [ 4.879222, 52.413992 ], [ 4.879551, 52.413835 ], [ 4.87945, 52.41375 ], [ 4.879416, 52.413701 ], [ 4.879412, 52.413648 ], [ 4.879444, 52.413603 ], [ 4.880132, 52.413191 ], [ 4.880511, 52.412979 ], [ 4.881891, 52.412317 ], [ 4.881862, 52.412303 ], [ 4.882309, 52.412072 ], [ 4.882885, 52.411813 ], [ 4.884147, 52.411212 ], [ 4.884978, 52.41085 ], [ 4.88589, 52.410426 ], [ 4.885955, 52.410409 ], [ 4.886049, 52.410403 ], [ 4.886085, 52.410318 ], [ 4.886099, 52.41031 ], [ 4.890066, 52.408431 ], [ 4.890097, 52.408409 ], [ 4.890116, 52.408383 ], [ 4.890114, 52.408332 ], [ 4.890261, 52.40827 ], [ 4.890308, 52.408279 ], [ 4.890365, 52.408271 ], [ 4.890513, 52.408196 ], [ 4.891632, 52.407615 ], [ 4.892369, 52.40719 ], [ 4.892548, 52.407066 ], [ 4.892644, 52.406986 ], [ 4.892773, 52.406853 ], [ 4.892884, 52.406703 ], [ 4.892972, 52.40653 ], [ 4.89302, 52.406368 ], [ 4.893172, 52.405161 ], [ 4.893223, 52.405023 ], [ 4.893276, 52.404929 ], [ 4.893513, 52.404625 ], [ 4.89393, 52.404435 ], [ 4.894615, 52.404145 ], [ 4.900195, 52.401475 ], [ 4.900273, 52.401539 ], [ 4.900816, 52.402304 ], [ 4.902116, 52.403784 ], [ 4.902411, 52.404053 ], [ 4.902684, 52.404256 ], [ 4.90523, 52.405601 ], [ 4.906054, 52.406041 ], [ 4.906301, 52.406216 ], [ 4.906475, 52.406378 ], [ 4.906615, 52.406552 ], [ 4.907315, 52.407615 ], [ 4.907376, 52.407754 ], [ 4.907391, 52.407898 ], [ 4.907374, 52.407999 ], [ 4.907331, 52.408101 ], [ 4.906951, 52.408617 ], [ 4.90675, 52.408857 ], [ 4.906571, 52.409049 ], [ 4.906281, 52.409324 ], [ 4.905994, 52.409563 ], [ 4.905551, 52.409878 ], [ 4.904644, 52.410406 ], [ 4.902045, 52.412294 ], [ 4.900097, 52.4137 ], [ 4.898843, 52.414747 ], [ 4.897849, 52.415291 ] ] ] } },
{ "type": "Feature", "properties": { "Wijk": "Tuindorp Nieuwendam" }, "geometry": { "type": "Polygon", "coordinates": [ [ [ 4.935021, 52.393082 ], [ 4.935654, 52.3927 ], [ 4.93575, 52.392653 ], [ 4.935917, 52.392604 ], [ 4.936642, 52.39248 ], [ 4.936883, 52.392412 ], [ 4.938011, 52.391949 ], [ 4.938318, 52.391805 ], [ 4.938618, 52.391645 ], [ 4.939435, 52.391489 ], [ 4.939486, 52.391528 ], [ 4.939598, 52.391513 ], [ 4.940223, 52.39141 ], [ 4.940322, 52.391382 ], [ 4.940753, 52.391307 ], [ 4.94103, 52.391249 ], [ 4.941188, 52.391211 ], [ 4.941671, 52.391123 ], [ 4.941806, 52.391083 ], [ 4.941922, 52.391035 ], [ 4.942172, 52.390889 ], [ 4.942845, 52.390398 ], [ 4.943492, 52.39011 ], [ 4.943716, 52.39 ], [ 4.944111, 52.389793 ], [ 4.944365, 52.38965 ], [ 4.944476, 52.389566 ], [ 4.944742, 52.389306 ], [ 4.944969, 52.389185 ], [ 4.945037, 52.389036 ], [ 4.945904, 52.388353 ], [ 4.946318, 52.387998 ], [ 4.946494, 52.387864 ], [ 4.947545, 52.387122 ], [ 4.947601, 52.387107 ], [ 4.947727, 52.387102 ], [ 4.947925, 52.387039 ], [ 4.947818, 52.386969 ], [ 4.947943, 52.386878 ], [ 4.948098, 52.386834 ], [ 4.948087, 52.386825 ], [ 4.948318, 52.386777 ], [ 4.949245, 52.386728 ], [ 4.94981, 52.386623 ], [ 4.952072, 52.386692 ], [ 4.952429, 52.386721 ], [ 4.952429, 52.389831 ], [ 4.951605, 52.391292 ], [ 4.944212, 52.393493 ], [ 4.940938, 52.394468 ], [ 4.940198, 52.394688 ], [ 4.940081, 52.394702 ], [ 4.939964, 52.394691 ], [ 4.936777, 52.393569 ], [ 4.936211, 52.393371 ], [ 4.935893, 52.393273 ], [ 4.93543, 52.393158 ], [ 4.935021, 52.393082 ] ] ] } },
{ "type": "Feature", "properties": { "Wijk": "Volewijck" }, "geometry": { "type": "Polygon", "coordinates": [ [ [ 4.903622, 52.381907 ], [ 4.912013, 52.385819 ], [ 4.912737, 52.386145 ], [ 4.913091, 52.386314 ], [ 4.913785, 52.386664 ], [ 4.914457, 52.387029 ], [ 4.915106, 52.387409 ], [ 4.915422, 52.387605 ], [ 4.916035, 52.388007 ], [ 4.916624, 52.388422 ], [ 4.917188, 52.388851 ], [ 4.917459, 52.38907 ], [ 4.917725, 52.389292 ], [ 4.918235, 52.389745 ], [ 4.918755, 52.390247 ], [ 4.919242, 52.390762 ], [ 4.919883, 52.391797 ], [ 4.921318, 52.394574 ], [ 4.921747, 52.395406 ], [ 4.922214, 52.396276 ], [ 4.922257, 52.396401 ], [ 4.922276, 52.396529 ], [ 4.92227, 52.396657 ], [ 4.922241, 52.396784 ], [ 4.922189, 52.396908 ], [ 4.922113, 52.397027 ], [ 4.922037, 52.397119 ], [ 4.921202, 52.398003 ], [ 4.920861, 52.398408 ], [ 4.92083, 52.398476 ], [ 4.920816, 52.398546 ], [ 4.920829, 52.398652 ], [ 4.920881, 52.398752 ], [ 4.92097, 52.398843 ], [ 4.921047, 52.398895 ], [ 4.921137, 52.398939 ], [ 4.921544, 52.399074 ], [ 4.921423, 52.399211 ], [ 4.921329, 52.399296 ], [ 4.921266, 52.399338 ], [ 4.921213, 52.399359 ], [ 4.921129, 52.399377 ], [ 4.920926, 52.399376 ], [ 4.920807, 52.399395 ], [ 4.919915, 52.399894 ], [ 4.919769, 52.39996 ], [ 4.919581, 52.400021 ], [ 4.916498, 52.400773 ], [ 4.9161, 52.400858 ], [ 4.915657, 52.400927 ], [ 4.91544, 52.400947 ], [ 4.915154, 52.400943 ], [ 4.914837, 52.4009 ], [ 4.913999, 52.40077 ], [ 4.91375, 52.400788 ], [ 4.913638, 52.400777 ], [ 4.913566, 52.400779 ], [ 4.913439, 52.400797 ], [ 4.913314, 52.400829 ], [ 4.913254, 52.400834 ], [ 4.910672, 52.400785 ], [ 4.910327, 52.400835 ], [ 4.909804, 52.400894 ], [ 4.909452, 52.400923 ], [ 4.908921, 52.400948 ], [ 4.909141, 52.399805 ], [ 4.909881, 52.398514 ], [ 4.909891, 52.398473 ], [ 4.909882, 52.398432 ], [ 4.90986, 52.3984 ], [ 4.909179, 52.397742 ], [ 4.910204, 52.39734 ], [ 4.910317, 52.397289 ], [ 4.91043, 52.397224 ], [ 4.910523, 52.397154 ], [ 4.910606, 52.397074 ], [ 4.910672, 52.396987 ], [ 4.911999, 52.394708 ], [ 4.912592, 52.39384 ], [ 4.912677, 52.393696 ], [ 4.912746, 52.393553 ], [ 4.912807, 52.393385 ], [ 4.91285, 52.393215 ], [ 4.912935, 52.392568 ], [ 4.912923, 52.392457 ], [ 4.912886, 52.392348 ], [ 4.912824, 52.392244 ], [ 4.912738, 52.392146 ], [ 4.910887, 52.392858 ], [ 4.909564, 52.39295 ], [ 4.908563, 52.393328 ], [ 4.907433, 52.39219 ], [ 4.906678, 52.391504 ], [ 4.906445, 52.391246 ], [ 4.906251, 52.390976 ], [ 4.906097, 52.390696 ], [ 4.905984, 52.390409 ], [ 4.905914, 52.390117 ], [ 4.905886, 52.389823 ], [ 4.905901, 52.389528 ], [ 4.905959, 52.389235 ], [ 4.906072, 52.388863 ], [ 4.907161, 52.386683 ], [ 4.907193, 52.386602 ], [ 4.90722, 52.386479 ], [ 4.907224, 52.386355 ], [ 4.907213, 52.386272 ], [ 4.907192, 52.38619 ], [ 4.907141, 52.38607 ], [ 4.906716, 52.385405 ], [ 4.906621, 52.385283 ], [ 4.906507, 52.385167 ], [ 4.906328, 52.385025 ], [ 4.906175, 52.384928 ], [ 4.906006, 52.38484 ], [ 4.902102, 52.383077 ], [ 4.902295, 52.382944 ], [ 4.903346, 52.382024 ], [ 4.903622, 52.381907 ] ] ] } },
{ "type": "Feature", "properties": { "Wijk": "Elzenhagen" }, "geometry": { "type": "Polygon", "coordinates": [ [ [ 4.922311, 52.399355 ], [ 4.92275, 52.398675 ], [ 4.923103, 52.398085 ], [ 4.923605, 52.397191 ], [ 4.923839, 52.396802 ], [ 4.924838, 52.395617 ], [ 4.925309, 52.396161 ], [ 4.925693, 52.396569 ], [ 4.926162, 52.397027 ], [ 4.926614, 52.397437 ], [ 4.927131, 52.397883 ], [ 4.928015, 52.3986 ], [ 4.932779, 52.402293 ], [ 4.938317, 52.406621 ], [ 4.939214, 52.407356 ], [ 4.937939, 52.40768 ], [ 4.936634, 52.408047 ], [ 4.935618, 52.408358 ], [ 4.934859, 52.40862 ], [ 4.934379, 52.408797 ], [ 4.933855, 52.409 ], [ 4.933114, 52.409309 ], [ 4.931494, 52.410065 ], [ 4.929658, 52.411013 ], [ 4.929468, 52.410847 ], [ 4.929027, 52.410382 ], [ 4.928547, 52.409756 ], [ 4.928187, 52.409327 ], [ 4.927221, 52.408742 ], [ 4.926844, 52.408446 ], [ 4.925754, 52.407481 ], [ 4.925592, 52.407284 ], [ 4.925407, 52.40702 ], [ 4.925247, 52.406721 ], [ 4.925156, 52.406413 ], [ 4.925153, 52.405265 ], [ 4.924983, 52.404341 ], [ 4.923801, 52.402242 ], [ 4.923103, 52.401239 ], [ 4.922935, 52.400812 ], [ 4.922832, 52.400491 ], [ 4.92272, 52.40006 ], [ 4.922532, 52.399568 ], [ 4.922439, 52.399455 ], [ 4.922311, 52.399355 ] ] ] } },
{ "type": "Feature", "properties": { "Wijk": "Buikslotermeer" }, "geometry": { "type": "Polygon", "coordinates": [ [ [ 4.924547, 52.395264 ], [ 4.933643, 52.393017 ], [ 4.933897, 52.392995 ], [ 4.934148, 52.392991 ], [ 4.934389, 52.393002 ], [ 4.935021, 52.393082 ], [ 4.93543, 52.393158 ], [ 4.935893, 52.393273 ], [ 4.936211, 52.393371 ], [ 4.936777, 52.393569 ], [ 4.939964, 52.394691 ], [ 4.940081, 52.394702 ], [ 4.940198, 52.394688 ], [ 4.940938, 52.394468 ], [ 4.944787, 52.398066 ], [ 4.945764, 52.39775 ], [ 4.946564, 52.397908 ], [ 4.951803, 52.402799 ], [ 4.951232, 52.403082 ], [ 4.950362, 52.403496 ], [ 4.949772, 52.403765 ], [ 4.948875, 52.404157 ], [ 4.947502, 52.404724 ], [ 4.946451, 52.405129 ], [ 4.945741, 52.405391 ], [ 4.945099, 52.405618 ], [ 4.944243, 52.405909 ], [ 4.943376, 52.40619 ], [ 4.942501, 52.40646 ], [ 4.941617, 52.40672 ], [ 4.940725, 52.406968 ], [ 4.939824, 52.407205 ], [ 4.939214, 52.407356 ], [ 4.938317, 52.406621 ], [ 4.932779, 52.402293 ], [ 4.928015, 52.3986 ], [ 4.927131, 52.397883 ], [ 4.926614, 52.397437 ], [ 4.926162, 52.397027 ], [ 4.925693, 52.396569 ], [ 4.925309, 52.396161 ], [ 4.924838, 52.395617 ], [ 4.924547, 52.395264 ] ] ] } },
{ "type": "Feature", "properties": { "Wijk": "Kadoelen" }, "geometry": { "type": "Polygon", "coordinates": [ [ [ 4.897849, 52.415291 ], [ 4.898843, 52.414747 ], [ 4.900097, 52.4137 ], [ 4.902045, 52.412294 ], [ 4.904644, 52.410406 ], [ 4.905551, 52.409878 ], [ 4.905994, 52.409563 ], [ 4.906281, 52.409324 ], [ 4.906571, 52.409049 ], [ 4.90675, 52.408857 ], [ 4.906951, 52.408617 ], [ 4.907331, 52.408101 ], [ 4.907374, 52.407999 ], [ 4.907391, 52.407898 ], [ 4.909041, 52.408016 ], [ 4.9106, 52.409337 ], [ 4.91146, 52.409594 ], [ 4.912625, 52.410077 ], [ 4.912757, 52.41023 ], [ 4.915334, 52.412363 ], [ 4.917453, 52.414139 ], [ 4.919259, 52.415618 ], [ 4.919826, 52.4161 ], [ 4.920456, 52.416608 ], [ 4.920447, 52.416613 ], [ 4.920432, 52.416616 ], [ 4.920271, 52.416615 ], [ 4.920267, 52.41662 ], [ 4.920226, 52.416633 ], [ 4.920127, 52.416681 ], [ 4.919966, 52.416741 ], [ 4.919887, 52.416776 ], [ 4.919861, 52.416784 ], [ 4.919817, 52.416794 ], [ 4.919789, 52.416802 ], [ 4.91973, 52.416826 ], [ 4.919674, 52.416844 ], [ 4.919585, 52.416888 ], [ 4.919458, 52.416942 ], [ 4.919381, 52.416978 ], [ 4.919194, 52.417058 ], [ 4.919123, 52.417087 ], [ 4.918975, 52.417155 ], [ 4.918906, 52.417181 ], [ 4.918795, 52.417232 ], [ 4.918713, 52.41726 ], [ 4.918483, 52.417361 ], [ 4.918403, 52.417402 ], [ 4.918341, 52.41743 ], [ 4.918202, 52.417495 ], [ 4.918104, 52.41753 ], [ 4.918002, 52.417577 ], [ 4.917933, 52.417604 ], [ 4.917866, 52.417635 ], [ 4.917769, 52.417673 ], [ 4.917631, 52.417739 ], [ 4.917545, 52.417774 ], [ 4.917475, 52.417808 ], [ 4.917399, 52.417841 ], [ 4.917299, 52.417881 ], [ 4.917236, 52.417909 ], [ 4.917161, 52.417937 ], [ 4.917053, 52.417986 ], [ 4.916995, 52.418008 ], [ 4.916823, 52.418085 ], [ 4.916751, 52.418111 ], [ 4.916652, 52.418158 ], [ 4.916567, 52.418193 ], [ 4.916466, 52.418243 ], [ 4.91631, 52.418312 ], [ 4.916272, 52.418326 ], [ 4.916184, 52.418356 ], [ 4.916134, 52.418375 ], [ 4.916056, 52.418409 ], [ 4.916001, 52.418431 ], [ 4.915918, 52.418468 ], [ 4.915878, 52.418488 ], [ 4.915795, 52.418523 ], [ 4.915738, 52.41855 ], [ 4.915697, 52.418564 ], [ 4.915669, 52.418571 ], [ 4.915573, 52.41859 ], [ 4.915504, 52.418601 ], [ 4.915462, 52.418604 ], [ 4.915394, 52.418606 ], [ 4.915204, 52.418624 ], [ 4.915017, 52.41864 ], [ 4.914934, 52.418652 ], [ 4.914755, 52.418666 ], [ 4.91471, 52.418676 ], [ 4.914653, 52.418501 ], [ 4.91464, 52.418503 ], [ 4.914622, 52.418502 ], [ 4.914588, 52.418491 ], [ 4.914558, 52.418497 ], [ 4.914533, 52.418499 ], [ 4.914052, 52.418496 ], [ 4.91394, 52.418532 ], [ 4.913812, 52.41858 ], [ 4.913675, 52.418627 ], [ 4.9136, 52.418654 ], [ 4.91355, 52.418675 ], [ 4.913538, 52.418678 ], [ 4.913407, 52.418732 ], [ 4.91327, 52.418786 ], [ 4.913128, 52.418834 ], [ 4.91287, 52.418932 ], [ 4.911804, 52.419345 ], [ 4.911434, 52.41949 ], [ 4.910964, 52.41968 ], [ 4.910608, 52.419834 ], [ 4.910155, 52.420037 ], [ 4.909616, 52.420272 ], [ 4.909241, 52.420452 ], [ 4.908683, 52.420716 ], [ 4.908573, 52.420746 ], [ 4.907969, 52.420874 ], [ 4.908038, 52.421016 ], [ 4.908071, 52.421077 ], [ 4.908089, 52.421125 ], [ 4.907619, 52.421227 ], [ 4.907538, 52.421248 ], [ 4.907308, 52.421353 ], [ 4.906934, 52.421531 ], [ 4.906485, 52.421738 ], [ 4.906332, 52.421811 ], [ 4.905995, 52.421983 ], [ 4.905935, 52.422017 ], [ 4.905906, 52.422029 ], [ 4.905711, 52.422123 ], [ 4.905677, 52.422143 ], [ 4.905646, 52.422154 ], [ 4.905621, 52.422166 ], [ 4.905579, 52.422182 ], [ 4.905389, 52.422259 ], [ 4.90535, 52.422277 ], [ 4.905288, 52.422309 ], [ 4.905179, 52.422353 ], [ 4.905063, 52.422407 ], [ 4.904993, 52.422434 ], [ 4.904944, 52.42246 ], [ 4.904738, 52.422543 ], [ 4.904647, 52.422585 ], [ 4.904372, 52.422698 ], [ 4.904335, 52.422717 ], [ 4.904134, 52.422803 ], [ 4.903957, 52.422876 ], [ 4.903752, 52.422957 ], [ 4.903659, 52.422998 ], [ 4.903342, 52.423111 ], [ 4.90326, 52.423145 ], [ 4.903006, 52.423239 ], [ 4.902951, 52.423262 ], [ 4.90292, 52.42327 ], [ 4.902778, 52.423324 ], [ 4.902587, 52.423389 ], [ 4.902495, 52.423418 ], [ 4.902424, 52.423443 ], [ 4.902367, 52.423461 ], [ 4.902289, 52.423489 ], [ 4.902228, 52.423506 ], [ 4.902186, 52.423522 ], [ 4.902055, 52.423569 ], [ 4.901892, 52.423624 ], [ 4.901469, 52.423756 ], [ 4.901327, 52.423795 ], [ 4.901263, 52.423816 ], [ 4.901127, 52.423855 ], [ 4.901095, 52.423868 ], [ 4.901032, 52.423885 ], [ 4.900967, 52.423909 ], [ 4.90089, 52.423928 ], [ 4.900838, 52.423947 ], [ 4.900763, 52.423965 ], [ 4.900529, 52.424042 ], [ 4.900477, 52.424054 ], [ 4.900327, 52.424102 ], [ 4.900277, 52.424112 ], [ 4.90023, 52.424129 ], [ 4.900063, 52.424176 ], [ 4.899945, 52.424205 ], [ 4.899904, 52.424219 ], [ 4.89985, 52.42423 ], [ 4.899765, 52.424257 ], [ 4.899669, 52.424281 ], [ 4.899622, 52.424295 ], [ 4.899578, 52.424303 ], [ 4.899496, 52.424322 ], [ 4.899361, 52.42436 ], [ 4.899086, 52.424419 ], [ 4.899016, 52.424432 ], [ 4.898748, 52.42449 ], [ 4.898746, 52.424462 ], [ 4.898766, 52.424199 ], [ 4.898607, 52.422023 ], [ 4.898596, 52.421556 ], [ 4.898667, 52.421109 ], [ 4.898571, 52.420569 ], [ 4.898581, 52.420569 ], [ 4.898492, 52.419149 ], [ 4.898497, 52.41863 ], [ 4.898446, 52.418295 ], [ 4.898402, 52.417671 ], [ 4.898248, 52.416867 ], [ 4.898233, 52.416836 ], [ 4.898277, 52.416736 ], [ 4.898364, 52.416643 ], [ 4.89838, 52.416597 ], [ 4.898372, 52.416561 ], [ 4.898318, 52.41649 ], [ 4.898079, 52.416254 ], [ 4.898055, 52.416217 ], [ 4.898138, 52.416185 ], [ 4.89806, 52.416098 ], [ 4.897975, 52.415881 ], [ 4.897849, 52.415291 ] ] ] } },
{ "type": "Feature", "properties": { "Wijk": "Noordelijke IJ-oevers-Oost" }, "geometry": { "type": "Polygon", "coordinates": [ [ [ 4.938371, 52.386734 ], [ 4.937583, 52.386874 ], [ 4.933155, 52.387587 ], [ 4.933031, 52.387605 ], [ 4.932967, 52.387606 ], [ 4.9325, 52.386499 ], [ 4.932468, 52.386464 ], [ 4.932432, 52.386443 ], [ 4.932372, 52.386426 ], [ 4.932307, 52.386422 ], [ 4.932229, 52.386438 ], [ 4.929672, 52.38742 ], [ 4.928509, 52.386301 ], [ 4.928392, 52.386346 ], [ 4.928295, 52.386248 ], [ 4.924885, 52.387559 ], [ 4.923919, 52.387565 ], [ 4.922646, 52.386337 ], [ 4.922541, 52.386256 ], [ 4.922462, 52.386206 ], [ 4.922285, 52.386121 ], [ 4.922137, 52.38607 ], [ 4.921926, 52.386022 ], [ 4.919651, 52.385685 ], [ 4.919292, 52.38561 ], [ 4.918945, 52.385516 ], [ 4.919256, 52.38454 ], [ 4.91882, 52.384493 ], [ 4.919119, 52.383566 ], [ 4.919044, 52.383399 ], [ 4.91953, 52.381854 ], [ 4.919787, 52.381895 ], [ 4.923792, 52.382341 ], [ 4.926437, 52.382653 ], [ 4.926737, 52.382895 ], [ 4.927316, 52.382972 ], [ 4.928659, 52.383232 ], [ 4.928806, 52.383192 ], [ 4.931636, 52.38363 ], [ 4.93668, 52.384329 ], [ 4.93686, 52.384322 ], [ 4.937165, 52.384206 ], [ 4.937273, 52.384097 ], [ 4.937474, 52.383955 ], [ 4.937606, 52.383924 ], [ 4.937883, 52.383952 ], [ 4.938335, 52.383852 ], [ 4.939918, 52.383893 ], [ 4.940495, 52.383837 ], [ 4.942321, 52.383869 ], [ 4.942898, 52.383855 ], [ 4.943072, 52.383921 ], [ 4.943193, 52.384003 ], [ 4.9433, 52.38411 ], [ 4.943351, 52.384267 ], [ 4.944349, 52.384189 ], [ 4.947265, 52.384099 ], [ 4.949617, 52.383985 ], [ 4.950511, 52.384027 ], [ 4.950779, 52.383962 ], [ 4.950956, 52.38396 ], [ 4.951203, 52.38397 ], [ 4.952428, 52.384187 ], [ 4.952429, 52.386309 ], [ 4.951241, 52.385956 ], [ 4.951062, 52.385913 ], [ 4.95087, 52.38588 ], [ 4.950634, 52.385856 ], [ 4.949972, 52.385823 ], [ 4.949679, 52.385821 ], [ 4.949051, 52.385833 ], [ 4.948167, 52.385873 ], [ 4.947254, 52.385942 ], [ 4.947169, 52.385929 ], [ 4.947101, 52.385901 ], [ 4.947059, 52.38587 ], [ 4.947005, 52.385803 ], [ 4.94694, 52.385764 ], [ 4.946856, 52.385742 ], [ 4.946765, 52.385738 ], [ 4.945932, 52.385859 ], [ 4.945721, 52.38594 ], [ 4.945534, 52.385986 ], [ 4.945227, 52.386023 ], [ 4.944738, 52.386097 ], [ 4.944534, 52.385639 ], [ 4.938371, 52.386734 ] ] ] } },
{ "type": "Feature", "properties": { "Wijk": "IJplein/Vogelbuurt" }, "geometry": { "type": "Polygon", "coordinates": [ [ [ 4.91953, 52.381854 ], [ 4.919044, 52.383399 ], [ 4.919119, 52.383566 ], [ 4.91882, 52.384493 ], [ 4.919256, 52.38454 ], [ 4.918945, 52.385516 ], [ 4.919292, 52.38561 ], [ 4.919651, 52.385685 ], [ 4.921926, 52.386022 ], [ 4.922137, 52.38607 ], [ 4.922285, 52.386121 ], [ 4.922462, 52.386206 ], [ 4.922541, 52.386256 ], [ 4.922646, 52.386337 ], [ 4.923919, 52.387565 ], [ 4.924885, 52.387559 ], [ 4.928295, 52.386248 ], [ 4.928392, 52.386346 ], [ 4.928509, 52.386301 ], [ 4.929672, 52.38742 ], [ 4.932229, 52.386438 ], [ 4.932307, 52.386422 ], [ 4.932372, 52.386426 ], [ 4.932432, 52.386443 ], [ 4.932468, 52.386464 ], [ 4.9325, 52.386499 ], [ 4.932967, 52.387606 ], [ 4.933031, 52.387605 ], [ 4.933155, 52.387587 ], [ 4.937583, 52.386874 ], [ 4.938371, 52.386734 ], [ 4.939629, 52.389945 ], [ 4.938404, 52.390773 ], [ 4.934807, 52.391281 ], [ 4.934209, 52.391378 ], [ 4.934093, 52.391382 ], [ 4.934085, 52.391346 ], [ 4.933764, 52.391369 ], [ 4.933724, 52.391379 ], [ 4.933543, 52.3914 ], [ 4.933553, 52.391438 ], [ 4.933417, 52.39145 ], [ 4.933407, 52.391411 ], [ 4.93322, 52.391428 ], [ 4.933057, 52.39141 ], [ 4.93306, 52.391385 ], [ 4.932934, 52.391376 ], [ 4.932932, 52.391387 ], [ 4.932746, 52.391389 ], [ 4.931669, 52.39136 ], [ 4.931545, 52.391353 ], [ 4.931546, 52.391348 ], [ 4.930341, 52.391282 ], [ 4.929234, 52.391204 ], [ 4.928598, 52.39115 ], [ 4.927774, 52.391073 ], [ 4.927014, 52.390974 ], [ 4.926444, 52.39089 ], [ 4.926444, 52.390896 ], [ 4.925181, 52.390697 ], [ 4.925061, 52.390699 ], [ 4.924759, 52.390668 ], [ 4.924633, 52.391109 ], [ 4.924608, 52.391152 ], [ 4.924609, 52.391185 ], [ 4.924653, 52.391307 ], [ 4.924632, 52.391319 ], [ 4.924612, 52.391392 ], [ 4.924112, 52.393461 ], [ 4.924269, 52.393737 ], [ 4.924149, 52.39378 ], [ 4.924106, 52.393814 ], [ 4.924082, 52.39386 ], [ 4.923686, 52.39522 ], [ 4.923631, 52.395444 ], [ 4.92355, 52.395633 ], [ 4.923525, 52.395905 ], [ 4.923248, 52.396668 ], [ 4.923057, 52.397098 ], [ 4.92263, 52.39784 ], [ 4.922511, 52.398013 ], [ 4.922289, 52.398271 ], [ 4.921544, 52.399074 ], [ 4.921137, 52.398939 ], [ 4.921047, 52.398895 ], [ 4.92097, 52.398843 ], [ 4.920881, 52.398752 ], [ 4.920829, 52.398652 ], [ 4.920816, 52.398546 ], [ 4.92083, 52.398476 ], [ 4.920861, 52.398408 ], [ 4.921202, 52.398003 ], [ 4.922037, 52.397119 ], [ 4.922113, 52.397027 ], [ 4.922189, 52.396908 ], [ 4.922241, 52.396784 ], [ 4.92227, 52.396657 ], [ 4.922276, 52.396529 ], [ 4.922257, 52.396401 ], [ 4.922214, 52.396276 ], [ 4.921747, 52.395406 ], [ 4.921318, 52.394574 ], [ 4.919883, 52.391797 ], [ 4.919242, 52.390762 ], [ 4.918755, 52.390247 ], [ 4.918235, 52.389745 ], [ 4.917725, 52.389292 ], [ 4.917459, 52.38907 ], [ 4.917188, 52.388851 ], [ 4.916624, 52.388422 ], [ 4.916035, 52.388007 ], [ 4.915422, 52.387605 ], [ 4.915106, 52.387409 ], [ 4.914457, 52.387029 ], [ 4.913785, 52.386664 ], [ 4.913091, 52.386314 ], [ 4.912737, 52.386145 ], [ 4.912013, 52.385819 ], [ 4.903622, 52.381907 ], [ 4.904388, 52.381582 ], [ 4.905075, 52.381355 ], [ 4.905749, 52.381185 ], [ 4.906562, 52.381659 ], [ 4.907954, 52.381834 ], [ 4.908507, 52.381762 ], [ 4.909402, 52.381691 ], [ 4.910914, 52.381626 ], [ 4.910939, 52.381394 ], [ 4.911034, 52.381262 ], [ 4.91117, 52.381205 ], [ 4.912487, 52.381145 ], [ 4.912529, 52.380989 ], [ 4.919294, 52.381815 ], [ 4.91953, 52.381854 ] ] ] } },
{ "type": "Feature", "properties": { "Wijk": "Waterland" }, "geometry": { "type": "MultiPolygon", "coordinates": [ [ [ [ 5.030023, 52.41694 ], [ 5.029949, 52.417203 ], [ 5.029732, 52.417706 ], [ 5.029515, 52.418063 ], [ 5.028984, 52.418858 ], [ 5.028697, 52.419177 ], [ 5.028362, 52.419416 ], [ 5.027265, 52.419865 ], [ 5.026921, 52.419972 ], [ 5.026505, 52.420064 ], [ 5.026071, 52.420116 ], [ 5.025629, 52.420152 ], [ 5.024946, 52.420082 ], [ 5.024821, 52.420088 ], [ 5.024292, 52.420121 ], [ 5.023563, 52.420266 ], [ 5.023208, 52.420365 ], [ 5.022378, 52.420767 ], [ 5.021938, 52.421063 ], [ 5.021615, 52.421222 ], [ 5.021521, 52.421201 ], [ 5.021411, 52.421171 ], [ 5.021286, 52.421128 ], [ 5.021159, 52.421068 ], [ 5.020962, 52.420781 ], [ 5.020663, 52.42034 ], [ 5.020475, 52.420058 ], [ 5.020397, 52.419959 ], [ 5.020318, 52.419898 ], [ 5.02019, 52.419842 ], [ 5.01993, 52.419765 ], [ 5.019728, 52.419686 ], [ 5.019317, 52.41951 ], [ 5.019034, 52.419378 ], [ 5.018621, 52.419207 ], [ 5.018517, 52.419124 ], [ 5.018466, 52.419135 ], [ 5.018453, 52.419135 ], [ 5.018418, 52.419128 ], [ 5.018358, 52.41911 ], [ 5.01821, 52.419059 ], [ 5.01782, 52.4192 ], [ 5.017814, 52.419194 ], [ 5.017567, 52.419287 ], [ 5.016711, 52.41958 ], [ 5.016594, 52.419621 ], [ 5.016568, 52.419633 ], [ 5.016481, 52.419663 ], [ 5.016295, 52.419723 ], [ 5.016115, 52.419788 ], [ 5.015998, 52.419832 ], [ 5.015884, 52.419873 ], [ 5.015753, 52.419916 ], [ 5.015584, 52.419975 ], [ 5.015328, 52.420073 ], [ 5.015231, 52.420108 ], [ 5.015008, 52.420175 ], [ 5.014975, 52.420194 ], [ 5.014928, 52.420205 ], [ 5.014888, 52.420211 ], [ 5.014784, 52.420245 ], [ 5.014374, 52.420388 ], [ 5.013999, 52.420521 ], [ 5.01397, 52.420532 ], [ 5.013745, 52.420628 ], [ 5.013723, 52.420641 ], [ 5.013685, 52.420656 ], [ 5.013299, 52.420791 ], [ 5.013168, 52.420839 ], [ 5.013016, 52.42089 ], [ 5.012854, 52.420946 ], [ 5.012525, 52.421066 ], [ 5.012425, 52.421097 ], [ 5.012138, 52.421208 ], [ 5.01186, 52.421305 ], [ 5.011314, 52.4215 ], [ 5.011185, 52.421544 ], [ 5.011062, 52.42159 ], [ 5.010636, 52.421746 ], [ 5.010476, 52.4218 ], [ 5.01031, 52.421861 ], [ 5.010243, 52.421883 ], [ 5.010209, 52.421885 ], [ 5.010173, 52.4219 ], [ 5.009991, 52.421966 ], [ 5.009717, 52.422074 ], [ 5.009554, 52.422135 ], [ 5.009423, 52.422175 ], [ 5.009384, 52.422188 ], [ 5.008941, 52.422346 ], [ 5.008751, 52.422418 ], [ 5.008718, 52.422432 ], [ 5.008543, 52.422492 ], [ 5.008362, 52.422558 ], [ 5.008147, 52.422632 ], [ 5.007964, 52.422692 ], [ 5.007945, 52.422701 ], [ 5.007377, 52.422907 ], [ 5.007311, 52.42293 ], [ 5.00711, 52.42299 ], [ 5.006867, 52.423073 ], [ 5.006432, 52.423231 ], [ 5.00627, 52.423286 ], [ 5.006244, 52.4233 ], [ 5.006193, 52.42332 ], [ 5.006089, 52.423362 ], [ 5.005975, 52.423405 ], [ 5.005867, 52.423443 ], [ 5.00576, 52.423478 ], [ 5.005716, 52.423491 ], [ 5.005304, 52.42364 ], [ 5.00494, 52.423768 ], [ 5.004515, 52.42392 ], [ 5.004348, 52.423978 ], [ 5.004056, 52.424088 ], [ 5.003792, 52.424179 ], [ 5.003483, 52.424299 ], [ 5.003352, 52.424342 ], [ 5.003176, 52.424405 ], [ 5.002671, 52.424591 ], [ 5.002313, 52.424721 ], [ 5.001954, 52.424849 ], [ 5.001657, 52.424957 ], [ 5.001494, 52.425014 ], [ 5.001187, 52.42513 ], [ 5.000899, 52.425229 ], [ 5.000722, 52.425293 ], [ 5.000298, 52.425404 ], [ 5.000162, 52.425443 ], [ 5.000133, 52.425424 ], [ 4.999999, 52.425414 ], [ 4.999971, 52.425414 ], [ 4.999666, 52.42543 ], [ 4.999632, 52.425429 ], [ 4.999567, 52.425432 ], [ 4.999451, 52.425433 ], [ 4.999206, 52.425415 ], [ 4.999068, 52.425415 ], [ 4.99879, 52.42542 ], [ 4.998555, 52.42542 ], [ 4.996971, 52.425433 ], [ 4.995583, 52.425471 ], [ 4.995571, 52.425487 ], [ 4.995443, 52.425492 ], [ 4.995378, 52.42546 ], [ 4.995256, 52.425466 ], [ 4.995254, 52.425443 ], [ 4.995208, 52.425445 ], [ 4.995172, 52.425438 ], [ 4.994966, 52.425435 ], [ 4.994744, 52.425438 ], [ 4.99453, 52.425439 ], [ 4.994469, 52.425443 ], [ 4.994447, 52.425452 ], [ 4.994266, 52.425455 ], [ 4.994234, 52.425454 ], [ 4.99419, 52.425449 ], [ 4.994072, 52.42544 ], [ 4.993808, 52.425431 ], [ 4.993569, 52.425404 ], [ 4.993464, 52.425399 ], [ 4.993352, 52.425404 ], [ 4.993208, 52.425415 ], [ 4.992952, 52.425429 ], [ 4.992835, 52.425429 ], [ 4.992723, 52.425437 ], [ 4.992561, 52.425442 ], [ 4.992425, 52.425441 ], [ 4.992171, 52.425429 ], [ 4.992016, 52.425432 ], [ 4.991869, 52.425444 ], [ 4.99173, 52.425453 ], [ 4.991647, 52.425456 ], [ 4.991533, 52.425456 ], [ 4.991434, 52.425448 ], [ 4.991414, 52.425444 ], [ 4.991398, 52.425436 ], [ 4.991387, 52.425426 ], [ 4.991377, 52.425401 ], [ 4.991144, 52.425407 ], [ 4.990938, 52.425415 ], [ 4.990684, 52.425421 ], [ 4.990494, 52.42543 ], [ 4.990508, 52.425481 ], [ 4.990487, 52.425484 ], [ 4.990458, 52.425498 ], [ 4.990467, 52.42552 ], [ 4.99045, 52.42552 ], [ 4.9904, 52.425393 ], [ 4.990363, 52.425277 ], [ 4.990357, 52.42517 ], [ 4.990368, 52.425057 ], [ 4.990405, 52.424787 ], [ 4.99042, 52.424577 ], [ 4.990411, 52.424518 ], [ 4.990367, 52.424463 ], [ 4.990204, 52.424304 ], [ 4.989925, 52.424063 ], [ 4.989573, 52.423716 ], [ 4.989189, 52.423372 ], [ 4.989105, 52.423306 ], [ 4.989012, 52.423272 ], [ 4.988839, 52.423254 ], [ 4.988265, 52.423261 ], [ 4.987923, 52.423268 ], [ 4.987774, 52.423268 ], [ 4.98769, 52.42323 ], [ 4.9875, 52.423112 ], [ 4.987107, 52.422842 ], [ 4.986572, 52.423295 ], [ 4.985786, 52.423986 ], [ 4.984721, 52.424937 ], [ 4.984514, 52.425113 ], [ 4.983826, 52.425717 ], [ 4.982642, 52.426762 ], [ 4.982577, 52.42674 ], [ 4.982454, 52.426691 ], [ 4.982131, 52.426557 ], [ 4.981866, 52.426438 ], [ 4.981799, 52.42641 ], [ 4.981626, 52.42634 ], [ 4.981565, 52.426299 ], [ 4.981527, 52.42628 ], [ 4.981412, 52.42624 ], [ 4.981305, 52.426199 ], [ 4.981011, 52.426081 ], [ 4.980945, 52.426057 ], [ 4.980833, 52.426 ], [ 4.980524, 52.425863 ], [ 4.980388, 52.425793 ], [ 4.980122, 52.42569 ], [ 4.9799, 52.4256 ], [ 4.979428, 52.425394 ], [ 4.979305, 52.425328 ], [ 4.979285, 52.42532 ], [ 4.979236, 52.425295 ], [ 4.97887, 52.425156 ], [ 4.97865, 52.425065 ], [ 4.978604, 52.425046 ], [ 4.978502, 52.424987 ], [ 4.978421, 52.424955 ], [ 4.97833, 52.424917 ], [ 4.978303, 52.424902 ], [ 4.978223, 52.42487 ], [ 4.978177, 52.424862 ], [ 4.978107, 52.42483 ], [ 4.97772, 52.424667 ], [ 4.977608, 52.424627 ], [ 4.977358, 52.424531 ], [ 4.977242, 52.424462 ], [ 4.977109, 52.42441 ], [ 4.976774, 52.42427 ], [ 4.976737, 52.424257 ], [ 4.976684, 52.424228 ], [ 4.976654, 52.424207 ], [ 4.976592, 52.424173 ], [ 4.976508, 52.424142 ], [ 4.976379, 52.42409 ], [ 4.976101, 52.423959 ], [ 4.975998, 52.423927 ], [ 4.975934, 52.423892 ], [ 4.975822, 52.423855 ], [ 4.97571, 52.423807 ], [ 4.975573, 52.423754 ], [ 4.975478, 52.423714 ], [ 4.975152, 52.423573 ], [ 4.974959, 52.423483 ], [ 4.974697, 52.423369 ], [ 4.974534, 52.423299 ], [ 4.974478, 52.423278 ], [ 4.974336, 52.423209 ], [ 4.974268, 52.423182 ], [ 4.973941, 52.42304 ], [ 4.973826, 52.422991 ], [ 4.973489, 52.422858 ], [ 4.9734, 52.422812 ], [ 4.973325, 52.422797 ], [ 4.97324, 52.422797 ], [ 4.972837, 52.422771 ], [ 4.972642, 52.422764 ], [ 4.972301, 52.422731 ], [ 4.97213, 52.422728 ], [ 4.971986, 52.422724 ], [ 4.971558, 52.422717 ], [ 4.971483, 52.422714 ], [ 4.971435, 52.422708 ], [ 4.97123, 52.422695 ], [ 4.971036, 52.422669 ], [ 4.970383, 52.422667 ], [ 4.970274, 52.422658 ], [ 4.970226, 52.422656 ], [ 4.970202, 52.422645 ], [ 4.97011, 52.422632 ], [ 4.969994, 52.42263 ], [ 4.969851, 52.422629 ], [ 4.969473, 52.422623 ], [ 4.969286, 52.422616 ], [ 4.969091, 52.422605 ], [ 4.968903, 52.422598 ], [ 4.968838, 52.422597 ], [ 4.968463, 52.422577 ], [ 4.968172, 52.422559 ], [ 4.968053, 52.422557 ], [ 4.967957, 52.422544 ], [ 4.967855, 52.42254 ], [ 4.967769, 52.422543 ], [ 4.967334, 52.422532 ], [ 4.966941, 52.422525 ], [ 4.966883, 52.422516 ], [ 4.966794, 52.422512 ], [ 4.966651, 52.422501 ], [ 4.966129, 52.422476 ], [ 4.965927, 52.422463 ], [ 4.965767, 52.42246 ], [ 4.965719, 52.422443 ], [ 4.965179, 52.422429 ], [ 4.965011, 52.42241 ], [ 4.964861, 52.422401 ], [ 4.964188, 52.422382 ], [ 4.963914, 52.422377 ], [ 4.96361, 52.422357 ], [ 4.963463, 52.422354 ], [ 4.962949, 52.422336 ], [ 4.962827, 52.422336 ], [ 4.962538, 52.422321 ], [ 4.962499, 52.422321 ], [ 4.962069, 52.422308 ], [ 4.961579, 52.422279 ], [ 4.961484, 52.422277 ], [ 4.961425, 52.422272 ], [ 4.961042, 52.422254 ], [ 4.960489, 52.422226 ], [ 4.960461, 52.422222 ], [ 4.960292, 52.422211 ], [ 4.959818, 52.422199 ], [ 4.959652, 52.422192 ], [ 4.959298, 52.422181 ], [ 4.959185, 52.422179 ], [ 4.958955, 52.42217 ], [ 4.958724, 52.42215 ], [ 4.957644, 52.422109 ], [ 4.957496, 52.422106 ], [ 4.957206, 52.422095 ], [ 4.956703, 52.42207 ], [ 4.956351, 52.422054 ], [ 4.956297, 52.422052 ], [ 4.95625, 52.422046 ], [ 4.955955, 52.421955 ], [ 4.955884, 52.42244 ], [ 4.955647, 52.422423 ], [ 4.955486, 52.422406 ], [ 4.955449, 52.422401 ], [ 4.955412, 52.422402 ], [ 4.955375, 52.422406 ], [ 4.955316, 52.422416 ], [ 4.955304, 52.422413 ], [ 4.955277, 52.422413 ], [ 4.955205, 52.422417 ], [ 4.955135, 52.422413 ], [ 4.954956, 52.422396 ], [ 4.954818, 52.422382 ], [ 4.954724, 52.42237 ], [ 4.954604, 52.422345 ], [ 4.954552, 52.422336 ], [ 4.954482, 52.422316 ], [ 4.95445, 52.422305 ], [ 4.954306, 52.422263 ], [ 4.95428, 52.422255 ], [ 4.954107, 52.422218 ], [ 4.954022, 52.422209 ], [ 4.953814, 52.422195 ], [ 4.953696, 52.422196 ], [ 4.953665, 52.422198 ], [ 4.953653, 52.4222 ], [ 4.953636, 52.422204 ], [ 4.953608, 52.422215 ], [ 4.953584, 52.422234 ], [ 4.953565, 52.422257 ], [ 4.953511, 52.422307 ], [ 4.953466, 52.422343 ], [ 4.953375, 52.422432 ], [ 4.953329, 52.422471 ], [ 4.95324, 52.422551 ], [ 4.953201, 52.422593 ], [ 4.953146, 52.422643 ], [ 4.953069, 52.422733 ], [ 4.952958, 52.422841 ], [ 4.952931, 52.422864 ], [ 4.952853, 52.422935 ], [ 4.952851, 52.422947 ], [ 4.952843, 52.422957 ], [ 4.952826, 52.422972 ], [ 4.952782, 52.423028 ], [ 4.952745, 52.423081 ], [ 4.952713, 52.423136 ], [ 4.952645, 52.423216 ], [ 4.952616, 52.423256 ], [ 4.952597, 52.423299 ], [ 4.9525, 52.423486 ], [ 4.952595, 52.423531 ], [ 4.952688, 52.423568 ], [ 4.952831, 52.423621 ], [ 4.952776, 52.42368 ], [ 4.952527, 52.423589 ], [ 4.952114, 52.423448 ], [ 4.952072, 52.423433 ], [ 4.951919, 52.423382 ], [ 4.951598, 52.423293 ], [ 4.951549, 52.423293 ], [ 4.951446, 52.423265 ], [ 4.951419, 52.42325 ], [ 4.951338, 52.423226 ], [ 4.951525, 52.423016 ], [ 4.951502, 52.423007 ], [ 4.951547, 52.422932 ], [ 4.951595, 52.422825 ], [ 4.951638, 52.422649 ], [ 4.951649, 52.422535 ], [ 4.951646, 52.422423 ], [ 4.951525, 52.421994 ], [ 4.951522, 52.421946 ], [ 4.951487, 52.42193 ], [ 4.950733, 52.421898 ], [ 4.949813, 52.421861 ], [ 4.949798, 52.421885 ], [ 4.949777, 52.4219 ], [ 4.949737, 52.421922 ], [ 4.949726, 52.421925 ], [ 4.949715, 52.421925 ], [ 4.949688, 52.421918 ], [ 4.949658, 52.421907 ], [ 4.949216, 52.421736 ], [ 4.948927, 52.42162 ], [ 4.948642, 52.4215 ], [ 4.948626, 52.421487 ], [ 4.948582, 52.421465 ], [ 4.948531, 52.421425 ], [ 4.947794, 52.421562 ], [ 4.947704, 52.421434 ], [ 4.947464, 52.420934 ], [ 4.947388, 52.420749 ], [ 4.947315, 52.420589 ], [ 4.947294, 52.420535 ], [ 4.947233, 52.420404 ], [ 4.947222, 52.420374 ], [ 4.947175, 52.420279 ], [ 4.947003, 52.419905 ], [ 4.94684, 52.419545 ], [ 4.94678, 52.419418 ], [ 4.94677, 52.419392 ], [ 4.946611, 52.419049 ], [ 4.946599, 52.419018 ], [ 4.946524, 52.418858 ], [ 4.946489, 52.418775 ], [ 4.946427, 52.418647 ], [ 4.946415, 52.418613 ], [ 4.94625, 52.418257 ], [ 4.946152, 52.418037 ], [ 4.946075, 52.417879 ], [ 4.946058, 52.417837 ], [ 4.946005, 52.417732 ], [ 4.945967, 52.417645 ], [ 4.945811, 52.417315 ], [ 4.945779, 52.417239 ], [ 4.945709, 52.417092 ], [ 4.945574, 52.416789 ], [ 4.945103, 52.415573 ], [ 4.94498, 52.415316 ], [ 4.944786, 52.415019 ], [ 4.944561, 52.414751 ], [ 4.944442, 52.414633 ], [ 4.944125, 52.414375 ], [ 4.944075, 52.414343 ], [ 4.94398, 52.414297 ], [ 4.943576, 52.414149 ], [ 4.943275, 52.414051 ], [ 4.943143, 52.414005 ], [ 4.942935, 52.413945 ], [ 4.942662, 52.413863 ], [ 4.942575, 52.413839 ], [ 4.942362, 52.413792 ], [ 4.94128, 52.413561 ], [ 4.939741, 52.413237 ], [ 4.939599, 52.413208 ], [ 4.939495, 52.413184 ], [ 4.938002, 52.412782 ], [ 4.936458, 52.412357 ], [ 4.936105, 52.412264 ], [ 4.935798, 52.412187 ], [ 4.93529, 52.412069 ], [ 4.935148, 52.41204 ], [ 4.935048, 52.412024 ], [ 4.935017, 52.412022 ], [ 4.934748, 52.411991 ], [ 4.934522, 52.411963 ], [ 4.933413, 52.411867 ], [ 4.932925, 52.411827 ], [ 4.932331, 52.411789 ], [ 4.931608, 52.411737 ], [ 4.931457, 52.411724 ], [ 4.931218, 52.4117 ], [ 4.931126, 52.411693 ], [ 4.930868, 52.411647 ], [ 4.930803, 52.411633 ], [ 4.930722, 52.411608 ], [ 4.930512, 52.411533 ], [ 4.930314, 52.411447 ], [ 4.930128, 52.411352 ], [ 4.929956, 52.411247 ], [ 4.929799, 52.411134 ], [ 4.929658, 52.411013 ], [ 4.931494, 52.410065 ], [ 4.933114, 52.409309 ], [ 4.933855, 52.409 ], [ 4.934379, 52.408797 ], [ 4.934859, 52.40862 ], [ 4.935618, 52.408358 ], [ 4.936634, 52.408047 ], [ 4.937939, 52.40768 ], [ 4.939214, 52.407356 ], [ 4.939824, 52.407205 ], [ 4.940725, 52.406968 ], [ 4.941617, 52.40672 ], [ 4.942501, 52.40646 ], [ 4.943376, 52.40619 ], [ 4.944243, 52.405909 ], [ 4.945099, 52.405618 ], [ 4.945741, 52.405391 ], [ 4.946451, 52.405129 ], [ 4.947502, 52.404724 ], [ 4.948875, 52.404157 ], [ 4.949772, 52.403765 ], [ 4.950362, 52.403496 ], [ 4.951232, 52.403082 ], [ 4.951803, 52.402799 ], [ 4.952566, 52.402409 ], [ 4.953185, 52.402079 ], [ 4.953966, 52.401648 ], [ 4.954919, 52.401093 ], [ 4.955712, 52.400613 ], [ 4.956568, 52.400064 ], [ 4.957664, 52.39932 ], [ 4.95863, 52.398614 ], [ 4.958961, 52.398361 ], [ 4.959711, 52.397756 ], [ 4.960517, 52.397063 ], [ 4.961232, 52.396401 ], [ 4.961668, 52.395973 ], [ 4.961982, 52.39565 ], [ 4.962814, 52.394743 ], [ 4.963548, 52.393891 ], [ 4.966862, 52.390001 ], [ 4.962965, 52.389071 ], [ 4.960445, 52.388547 ], [ 4.960365, 52.388522 ], [ 4.960304, 52.388491 ], [ 4.960234, 52.388433 ], [ 4.960123, 52.38828 ], [ 4.960056, 52.388236 ], [ 4.959986, 52.388209 ], [ 4.95391, 52.386748 ], [ 4.952429, 52.386309 ], [ 4.952428, 52.384187 ], [ 4.953234, 52.38433 ], [ 4.953623, 52.384316 ], [ 4.953956, 52.384376 ], [ 4.954163, 52.384377 ], [ 4.955747, 52.384306 ], [ 4.95678, 52.38415 ], [ 4.958699, 52.383729 ], [ 4.959444, 52.383532 ], [ 4.960129, 52.383316 ], [ 4.960249, 52.383235 ], [ 4.960551, 52.382961 ], [ 4.961327, 52.38261 ], [ 4.960648, 52.382041 ], [ 4.96116, 52.381802 ], [ 4.963346, 52.383586 ], [ 4.963827, 52.383263 ], [ 4.964617, 52.382812 ], [ 4.965191, 52.382203 ], [ 4.965815, 52.38188 ], [ 4.966996, 52.380814 ], [ 4.968325, 52.379538 ], [ 4.968503, 52.37934 ], [ 4.969017, 52.379276 ], [ 4.969287, 52.37926 ], [ 4.969502, 52.379311 ], [ 4.969893, 52.379447 ], [ 4.972994, 52.379813 ], [ 4.973229, 52.379203 ], [ 4.973493, 52.37833 ], [ 4.973633, 52.377992 ], [ 4.974133, 52.378045 ], [ 4.974017, 52.379422 ], [ 4.975792, 52.377977 ], [ 4.976686, 52.377145 ], [ 4.978697, 52.375547 ], [ 4.978947, 52.375294 ], [ 4.979571, 52.374557 ], [ 4.979851, 52.374089 ], [ 4.980126, 52.373718 ], [ 4.980248, 52.373681 ], [ 4.980988, 52.373741 ], [ 4.981144, 52.373701 ], [ 4.981408, 52.373591 ], [ 4.981562, 52.373461 ], [ 4.981647, 52.373456 ], [ 4.981745, 52.37349 ], [ 4.982122, 52.373893 ], [ 4.982242, 52.373911 ], [ 4.98285, 52.373903 ], [ 4.983284, 52.37393 ], [ 4.983825, 52.374032 ], [ 4.983866, 52.374069 ], [ 4.983959, 52.374251 ], [ 4.984159, 52.374492 ], [ 4.984522, 52.374774 ], [ 4.984945, 52.374983 ], [ 4.985349, 52.375084 ], [ 4.985644, 52.375225 ], [ 4.98622, 52.375682 ], [ 4.987389, 52.376338 ], [ 4.987869, 52.376829 ], [ 4.988972, 52.377311 ], [ 4.989403, 52.377478 ], [ 4.989712, 52.377529 ], [ 4.989979, 52.377521 ], [ 4.990588, 52.3774 ], [ 4.990954, 52.377293 ], [ 4.991414, 52.377196 ], [ 4.991812, 52.377195 ], [ 4.991722, 52.377428 ], [ 4.991274, 52.377724 ], [ 4.992485, 52.378182 ], [ 4.993451, 52.378471 ], [ 4.993778, 52.378028 ], [ 4.993953, 52.37783 ], [ 4.994177, 52.377758 ], [ 4.994335, 52.377727 ], [ 4.99466, 52.377768 ], [ 4.9956, 52.377939 ], [ 4.995704, 52.377988 ], [ 4.995794, 52.378077 ], [ 4.996056, 52.378093 ], [ 4.996317, 52.37815 ], [ 4.996839, 52.378191 ], [ 4.997841, 52.37837 ], [ 4.998117, 52.378692 ], [ 4.99831, 52.378768 ], [ 4.998593, 52.37881 ], [ 4.999812, 52.378318 ], [ 4.999976, 52.378186 ], [ 5.000482, 52.37742 ], [ 5.000713, 52.377207 ], [ 5.000876, 52.377001 ], [ 5.001304, 52.375224 ], [ 5.001634, 52.374968 ], [ 5.006589, 52.373526 ], [ 5.007832, 52.372679 ], [ 5.00837, 52.372568 ], [ 5.008537, 52.372607 ], [ 5.008827, 52.372818 ], [ 5.009076, 52.372915 ], [ 5.009109, 52.372987 ], [ 5.009474, 52.372962 ], [ 5.010087, 52.373083 ], [ 5.011074, 52.373463 ], [ 5.011638, 52.373542 ], [ 5.011658, 52.373631 ], [ 5.01198, 52.373729 ], [ 5.011537, 52.374008 ], [ 5.01171, 52.374205 ], [ 5.011881, 52.374284 ], [ 5.01191, 52.374481 ], [ 5.011765, 52.374512 ], [ 5.01169, 52.37464 ], [ 5.012089, 52.374923 ], [ 5.011728, 52.375548 ], [ 5.011703, 52.375696 ], [ 5.011743, 52.375866 ], [ 5.01195, 52.375974 ], [ 5.012232, 52.376065 ], [ 5.012334, 52.376225 ], [ 5.012354, 52.376404 ], [ 5.012411, 52.376506 ], [ 5.012634, 52.376545 ], [ 5.013052, 52.377039 ], [ 5.012996, 52.377225 ], [ 5.012894, 52.37731 ], [ 5.012689, 52.377377 ], [ 5.012455, 52.377399 ], [ 5.012334, 52.377478 ], [ 5.012411, 52.377666 ], [ 5.012614, 52.377785 ], [ 5.012623, 52.377862 ], [ 5.012783, 52.378134 ], [ 5.01338, 52.378394 ], [ 5.013477, 52.378493 ], [ 5.013616, 52.378736 ], [ 5.013538, 52.378816 ], [ 5.013636, 52.378973 ], [ 5.013666, 52.37911 ], [ 5.013602, 52.379196 ], [ 5.013741, 52.379474 ], [ 5.013646, 52.379534 ], [ 5.013733, 52.380023 ], [ 5.013694, 52.380098 ], [ 5.013766, 52.380141 ], [ 5.013794, 52.380833 ], [ 5.013705, 52.380957 ], [ 5.013445, 52.381229 ], [ 5.013473, 52.38142 ], [ 5.013552, 52.381632 ], [ 5.013561, 52.381786 ], [ 5.013493, 52.381863 ], [ 5.013331, 52.381949 ], [ 5.013117, 52.382194 ], [ 5.012937, 52.382337 ], [ 5.012781, 52.38235 ], [ 5.012502, 52.382274 ], [ 5.011978, 52.382313 ], [ 5.011486, 52.382135 ], [ 5.011332, 52.382141 ], [ 5.011109, 52.382256 ], [ 5.010943, 52.382533 ], [ 5.010925, 52.38279 ], [ 5.010977, 52.383121 ], [ 5.011219, 52.383254 ], [ 5.01157, 52.383304 ], [ 5.011892, 52.383388 ], [ 5.012191, 52.383339 ], [ 5.012352, 52.383407 ], [ 5.012999, 52.383442 ], [ 5.013133, 52.383557 ], [ 5.013248, 52.383948 ], [ 5.01311, 52.384245 ], [ 5.014106, 52.384612 ], [ 5.015567, 52.384335 ], [ 5.016296, 52.384255 ], [ 5.01676, 52.384289 ], [ 5.017164, 52.38439 ], [ 5.017514, 52.384556 ], [ 5.017809, 52.384789 ], [ 5.018058, 52.385038 ], [ 5.018273, 52.38532 ], [ 5.01867, 52.386098 ], [ 5.018883, 52.386447 ], [ 5.019045, 52.386613 ], [ 5.020041, 52.386946 ], [ 5.020821, 52.387156 ], [ 5.021979, 52.387432 ], [ 5.022372, 52.387376 ], [ 5.023417, 52.387605 ], [ 5.024235, 52.387821 ], [ 5.024786, 52.387915 ], [ 5.025244, 52.388131 ], [ 5.025325, 52.388316 ], [ 5.025226, 52.388752 ], [ 5.025396, 52.3893 ], [ 5.025425, 52.389555 ], [ 5.025708, 52.390009 ], [ 5.025814, 52.390501 ], [ 5.026066, 52.391016 ], [ 5.026328, 52.391405 ], [ 5.026361, 52.3919 ], [ 5.026576, 52.392386 ], [ 5.026728, 52.392794 ], [ 5.026999, 52.392993 ], [ 5.027504, 52.393685 ], [ 5.027491, 52.394093 ], [ 5.027705, 52.3947 ], [ 5.027844, 52.395241 ], [ 5.028447, 52.395721 ], [ 5.028623, 52.395966 ], [ 5.028498, 52.396118 ], [ 5.028402, 52.396366 ], [ 5.028492, 52.396681 ], [ 5.028831, 52.397646 ], [ 5.029431, 52.398755 ], [ 5.031183, 52.400401 ], [ 5.031358, 52.400778 ], [ 5.031492, 52.400952 ], [ 5.031921, 52.401096 ], [ 5.032714, 52.401207 ], [ 5.032932, 52.401361 ], [ 5.033134, 52.401766 ], [ 5.033655, 52.402177 ], [ 5.033962, 52.402583 ], [ 5.034447, 52.40275 ], [ 5.035527, 52.403025 ], [ 5.036174, 52.403315 ], [ 5.036591, 52.403556 ], [ 5.037935, 52.40453 ], [ 5.038082, 52.404701 ], [ 5.038499, 52.404892 ], [ 5.038985, 52.405022 ], [ 5.040456, 52.405174 ], [ 5.041077, 52.405268 ], [ 5.041401, 52.40535 ], [ 5.04171, 52.405475 ], [ 5.042623, 52.405997 ], [ 5.042852, 52.406065 ], [ 5.043608, 52.40614 ], [ 5.044967, 52.406516 ], [ 5.046154, 52.40671 ], [ 5.046289, 52.406784 ], [ 5.047554, 52.408396 ], [ 5.047729, 52.408562 ], [ 5.047944, 52.40872 ], [ 5.048091, 52.408877 ], [ 5.048203, 52.409051 ], [ 5.048308, 52.4093 ], [ 5.04847, 52.409532 ], [ 5.049543, 52.410773 ], [ 5.050923, 52.412231 ], [ 5.051258, 52.412612 ], [ 5.051477, 52.412816 ], [ 5.051692, 52.412957 ], [ 5.052352, 52.413273 ], [ 5.055112, 52.414252 ], [ 5.056366, 52.414628 ], [ 5.056888, 52.414749 ], [ 5.057268, 52.414784 ], [ 5.057686, 52.414793 ], [ 5.058199, 52.414778 ], [ 5.059673, 52.414593 ], [ 5.061466, 52.414324 ], [ 5.062438, 52.414236 ], [ 5.064446, 52.413911 ], [ 5.065489, 52.413683 ], [ 5.067166, 52.413414 ], [ 5.067341, 52.41344 ], [ 5.067475, 52.413531 ], [ 5.067595, 52.413721 ], [ 5.067673, 52.414052 ], [ 5.067805, 52.414457 ], [ 5.067993, 52.414772 ], [ 5.068233, 52.41502 ], [ 5.068332, 52.415162 ], [ 5.068412, 52.415352 ], [ 5.068464, 52.415601 ], [ 5.068448, 52.415815 ], [ 5.068278, 52.41626 ], [ 5.068285, 52.416552 ], [ 5.068273, 52.416557 ], [ 5.067938, 52.41657 ], [ 5.067635, 52.416649 ], [ 5.067635, 52.416649 ], [ 5.067669, 52.415768 ], [ 5.067103, 52.415669 ], [ 5.066618, 52.415643 ], [ 5.066024, 52.415731 ], [ 5.065811, 52.415819 ], [ 5.06564, 52.415956 ], [ 5.065468, 52.415987 ], [ 5.065244, 52.415978 ], [ 5.064954, 52.415881 ], [ 5.064902, 52.41572 ], [ 5.064349, 52.415637 ], [ 5.064113, 52.415484 ], [ 5.064114, 52.415379 ], [ 5.063578, 52.415152 ], [ 5.063313, 52.415141 ], [ 5.063076, 52.415166 ], [ 5.062829, 52.415158 ], [ 5.06276, 52.415068 ], [ 5.062563, 52.414995 ], [ 5.062404, 52.415033 ], [ 5.062205, 52.415124 ], [ 5.061902, 52.41522 ], [ 5.061546, 52.415227 ], [ 5.061374, 52.415137 ], [ 5.061163, 52.415104 ], [ 5.060568, 52.4152 ], [ 5.059532, 52.415407 ], [ 5.05878, 52.415534 ], [ 5.058541, 52.415654 ], [ 5.058371, 52.415661 ], [ 5.05791, 52.415515 ], [ 5.057526, 52.41553 ], [ 5.057185, 52.415465 ], [ 5.056947, 52.415359 ], [ 5.056764, 52.415326 ], [ 5.056395, 52.415317 ], [ 5.056104, 52.41534 ], [ 5.055881, 52.415291 ], [ 5.055628, 52.415227 ], [ 5.055406, 52.415113 ], [ 5.055301, 52.414999 ], [ 5.054814, 52.414877 ], [ 5.054616, 52.414772 ], [ 5.053945, 52.414673 ], [ 5.053339, 52.41455 ], [ 5.053155, 52.414421 ], [ 5.05272, 52.414403 ], [ 5.052458, 52.414257 ], [ 5.051561, 52.414155 ], [ 5.050968, 52.414025 ], [ 5.05027, 52.41399 ], [ 5.049702, 52.414094 ], [ 5.0492, 52.414229 ], [ 5.048213, 52.414259 ], [ 5.047711, 52.414395 ], [ 5.047459, 52.414402 ], [ 5.047063, 52.414554 ], [ 5.046877, 52.414674 ], [ 5.046189, 52.414826 ], [ 5.046034, 52.414925 ], [ 5.045661, 52.415034 ], [ 5.045412, 52.415137 ], [ 5.045227, 52.415104 ], [ 5.044446, 52.41536 ], [ 5.04446, 52.415465 ], [ 5.044346, 52.415557 ], [ 5.044232, 52.415843 ], [ 5.043967, 52.416092 ], [ 5.043525, 52.41616 ], [ 5.043226, 52.416341 ], [ 5.042764, 52.416355 ], [ 5.042045, 52.416472 ], [ 5.04149, 52.416608 ], [ 5.040896, 52.416792 ], [ 5.040459, 52.416847 ], [ 5.039693, 52.417023 ], [ 5.039337, 52.417078 ], [ 5.038422, 52.417342 ], [ 5.037298, 52.417621 ], [ 5.037113, 52.417588 ], [ 5.036545, 52.417723 ], [ 5.036321, 52.417747 ], [ 5.036126, 52.417722 ], [ 5.035653, 52.417559 ], [ 5.035481, 52.417461 ], [ 5.035496, 52.417325 ], [ 5.03543, 52.41722 ], [ 5.035458, 52.41709 ], [ 5.035454, 52.416969 ], [ 5.035126, 52.416936 ], [ 5.035189, 52.416742 ], [ 5.035194, 52.416597 ], [ 5.035089, 52.416508 ], [ 5.034905, 52.416426 ], [ 5.034722, 52.416301 ], [ 5.034458, 52.416207 ], [ 5.034312, 52.416094 ], [ 5.034223, 52.415997 ], [ 5.033894, 52.415778 ], [ 5.033817, 52.415682 ], [ 5.033357, 52.41547 ], [ 5.032972, 52.415236 ], [ 5.032034, 52.415116 ], [ 5.03061, 52.415127 ], [ 5.030305, 52.415215 ], [ 5.030151, 52.415152 ], [ 5.030003, 52.415061 ], [ 5.029702, 52.414673 ], [ 5.029348, 52.414478 ], [ 5.029034, 52.414219 ], [ 5.02741, 52.414235 ], [ 5.027218, 52.414307 ], [ 5.026224, 52.414259 ], [ 5.025934, 52.414218 ], [ 5.025158, 52.414016 ], [ 5.025035, 52.41397 ], [ 5.025036, 52.413925 ], [ 5.024636, 52.413932 ], [ 5.024439, 52.413899 ], [ 5.023996, 52.413967 ], [ 5.023849, 52.413937 ], [ 5.023846, 52.413808 ], [ 5.023543, 52.413832 ], [ 5.023226, 52.41379 ], [ 5.022306, 52.413755 ], [ 5.021448, 52.413801 ], [ 5.02115, 52.413857 ], [ 5.020809, 52.413873 ], [ 5.020452, 52.413846 ], [ 5.01992, 52.413913 ], [ 5.01964, 52.413981 ], [ 5.019183, 52.414059 ], [ 5.018921, 52.414049 ], [ 5.018677, 52.414021 ], [ 5.018501, 52.413968 ], [ 5.018365, 52.413898 ], [ 5.018308, 52.413809 ], [ 5.018319, 52.413531 ], [ 5.018262, 52.413379 ], [ 5.018199, 52.413298 ], [ 5.018107, 52.413248 ], [ 5.017981, 52.413229 ], [ 5.017849, 52.413185 ], [ 5.015903, 52.412176 ], [ 5.015834, 52.412066 ], [ 5.015573, 52.412054 ], [ 5.015384, 52.412026 ], [ 5.014882, 52.411863 ], [ 5.014727, 52.41183 ], [ 5.01445, 52.411846 ], [ 5.014286, 52.411826 ], [ 5.013874, 52.411648 ], [ 5.013711, 52.41162 ], [ 5.013376, 52.411622 ], [ 5.013233, 52.411581 ], [ 5.012761, 52.411496 ], [ 5.012584, 52.411491 ], [ 5.012221, 52.411513 ], [ 5.011995, 52.411618 ], [ 5.011796, 52.411674 ], [ 5.011241, 52.411744 ], [ 5.011236, 52.412328 ], [ 5.011175, 52.41261 ], [ 5.011345, 52.412909 ], [ 5.011868, 52.413242 ], [ 5.011976, 52.413291 ], [ 5.012421, 52.4134 ], [ 5.012702, 52.413447 ], [ 5.013095, 52.413558 ], [ 5.013303, 52.413642 ], [ 5.013898, 52.413949 ], [ 5.014386, 52.414275 ], [ 5.015057, 52.414561 ], [ 5.015356, 52.414786 ], [ 5.01576, 52.415035 ], [ 5.015931, 52.415239 ], [ 5.016566, 52.415566 ], [ 5.016666, 52.415636 ], [ 5.018161, 52.415892 ], [ 5.018517, 52.416047 ], [ 5.018913, 52.416016 ], [ 5.01923, 52.415952 ], [ 5.019462, 52.415931 ], [ 5.019745, 52.41588 ], [ 5.019943, 52.41587 ], [ 5.020139, 52.415819 ], [ 5.020318, 52.415711 ], [ 5.020739, 52.415381 ], [ 5.020817, 52.415373 ], [ 5.021404, 52.415218 ], [ 5.021656, 52.415139 ], [ 5.022029, 52.415089 ], [ 5.0223, 52.415083 ], [ 5.022478, 52.415022 ], [ 5.022674, 52.415016 ], [ 5.023047, 52.415046 ], [ 5.02354, 52.415133 ], [ 5.023936, 52.415099 ], [ 5.024093, 52.415119 ], [ 5.024358, 52.415215 ], [ 5.024924, 52.415227 ], [ 5.025285, 52.415257 ], [ 5.025591, 52.415233 ], [ 5.026014, 52.415226 ], [ 5.026281, 52.41516 ], [ 5.026416, 52.415155 ], [ 5.027374, 52.415215 ], [ 5.027807, 52.415247 ], [ 5.029042, 52.415483 ], [ 5.029173, 52.415572 ], [ 5.029206, 52.415816 ], [ 5.029346, 52.415951 ], [ 5.02951, 52.416251 ], [ 5.029889, 52.41668 ], [ 5.030023, 52.41694 ] ], [ [ 5.028051, 52.397264 ], [ 5.027797, 52.396033 ], [ 5.02743, 52.395402 ], [ 5.027099, 52.394683 ], [ 5.026954, 52.393978 ], [ 5.026877, 52.393811 ], [ 5.026754, 52.393613 ], [ 5.026162, 52.392848 ], [ 5.024926, 52.38955 ], [ 5.024609, 52.388388 ], [ 5.024421, 52.388231 ], [ 5.022949, 52.387942 ], [ 5.022656, 52.387919 ], [ 5.021131, 52.387618 ], [ 5.020871, 52.387696 ], [ 5.020704, 52.387713 ], [ 5.019857, 52.387736 ], [ 5.019548, 52.387826 ], [ 5.019239, 52.387873 ], [ 5.019021, 52.387885 ], [ 5.018808, 52.387868 ], [ 5.018568, 52.387824 ], [ 5.01835, 52.387724 ], [ 5.018235, 52.387459 ], [ 5.018383, 52.387205 ], [ 5.018787, 52.387214 ], [ 5.019029, 52.386943 ], [ 5.01877, 52.386857 ], [ 5.017847, 52.386366 ], [ 5.017444, 52.3862 ], [ 5.017203, 52.38601 ], [ 5.017098, 52.385845 ], [ 5.01777, 52.385889 ], [ 5.017639, 52.385379 ], [ 5.017466, 52.385139 ], [ 5.016985, 52.384899 ], [ 5.016636, 52.384808 ], [ 5.015963, 52.384748 ], [ 5.015707, 52.384789 ], [ 5.015411, 52.384861 ], [ 5.015477, 52.385043 ], [ 5.015451, 52.385218 ], [ 5.014897, 52.385394 ], [ 5.014748, 52.385402 ], [ 5.014642, 52.385352 ], [ 5.014236, 52.385525 ], [ 5.013752, 52.385662 ], [ 5.012922, 52.38587 ], [ 5.012382, 52.386064 ], [ 5.012427, 52.386138 ], [ 5.012058, 52.386262 ], [ 5.011784, 52.386311 ], [ 5.011716, 52.386342 ], [ 5.011551, 52.38678 ], [ 5.011459, 52.386836 ], [ 5.01114, 52.387225 ], [ 5.010654, 52.387375 ], [ 5.010366, 52.387555 ], [ 5.01037, 52.387667 ], [ 5.01017, 52.38779 ], [ 5.010035, 52.387755 ], [ 5.009803, 52.387974 ], [ 5.009802, 52.388113 ], [ 5.0099, 52.388249 ], [ 5.009801, 52.388414 ], [ 5.009545, 52.388481 ], [ 5.009179, 52.388429 ], [ 5.008857, 52.388329 ], [ 5.008711, 52.388188 ], [ 5.008398, 52.388247 ], [ 5.008206, 52.388176 ], [ 5.008055, 52.38818 ], [ 5.00797, 52.388272 ], [ 5.008057, 52.388374 ], [ 5.008494, 52.388652 ], [ 5.008892, 52.389063 ], [ 5.009054, 52.389006 ], [ 5.009362, 52.389074 ], [ 5.009465, 52.389244 ], [ 5.009381, 52.389402 ], [ 5.008851, 52.389822 ], [ 5.008788, 52.389984 ], [ 5.008822, 52.390069 ], [ 5.009021, 52.390147 ], [ 5.009082, 52.390233 ], [ 5.009221, 52.39029 ], [ 5.00933, 52.390272 ], [ 5.009519, 52.390277 ], [ 5.00972, 52.390335 ], [ 5.009842, 52.390261 ], [ 5.010029, 52.390187 ], [ 5.010129, 52.390293 ], [ 5.010241, 52.390561 ], [ 5.010136, 52.390655 ], [ 5.009901, 52.390777 ], [ 5.009589, 52.39098 ], [ 5.009252, 52.391069 ], [ 5.009185, 52.391192 ], [ 5.009201, 52.391282 ], [ 5.009275, 52.39137 ], [ 5.009376, 52.391417 ], [ 5.009435, 52.391473 ], [ 5.009507, 52.391637 ], [ 5.009443, 52.391838 ], [ 5.009693, 52.391878 ], [ 5.009951, 52.391681 ], [ 5.010228, 52.391705 ], [ 5.010203, 52.391598 ], [ 5.010221, 52.391483 ], [ 5.010394, 52.391388 ], [ 5.010503, 52.391293 ], [ 5.010768, 52.391218 ], [ 5.011187, 52.391049 ], [ 5.011312, 52.391034 ], [ 5.011363, 52.391095 ], [ 5.011514, 52.391174 ], [ 5.011992, 52.391203 ], [ 5.012236, 52.391255 ], [ 5.012664, 52.39131 ], [ 5.01244, 52.391395 ], [ 5.012335, 52.39151 ], [ 5.01242, 52.39154 ], [ 5.012351, 52.391646 ], [ 5.01213, 52.391755 ], [ 5.011715, 52.392053 ], [ 5.011582, 52.392088 ], [ 5.011527, 52.392186 ], [ 5.011538, 52.392276 ], [ 5.011631, 52.392435 ], [ 5.012033, 52.392699 ], [ 5.011963, 52.392963 ], [ 5.012448, 52.39305 ], [ 5.012485, 52.393276 ], [ 5.012577, 52.393447 ], [ 5.012684, 52.393513 ], [ 5.012697, 52.393563 ], [ 5.012616, 52.393596 ], [ 5.012522, 52.393595 ], [ 5.012427, 52.393702 ], [ 5.01229, 52.394104 ], [ 5.012208, 52.394244 ], [ 5.012327, 52.394417 ], [ 5.012716, 52.394575 ], [ 5.012883, 52.39462 ], [ 5.012935, 52.394563 ], [ 5.013455, 52.394807 ], [ 5.013963, 52.395137 ], [ 5.014103, 52.395419 ], [ 5.014212, 52.395548 ], [ 5.014333, 52.395936 ], [ 5.014399, 52.39606 ], [ 5.014372, 52.39635 ], [ 5.014396, 52.396383 ], [ 5.014549, 52.396431 ], [ 5.014747, 52.396431 ], [ 5.014984, 52.396351 ], [ 5.01512, 52.396287 ], [ 5.015404, 52.396214 ], [ 5.015595, 52.396177 ], [ 5.015726, 52.39619 ], [ 5.015781, 52.39616 ], [ 5.015847, 52.396084 ], [ 5.016009, 52.396125 ], [ 5.016224, 52.39615 ], [ 5.016492, 52.396135 ], [ 5.016708, 52.396102 ], [ 5.016909, 52.396144 ], [ 5.017123, 52.39622 ], [ 5.017271, 52.396318 ], [ 5.017323, 52.39659 ], [ 5.017596, 52.396747 ], [ 5.017851, 52.396789 ], [ 5.01784, 52.396583 ], [ 5.017872, 52.396484 ], [ 5.018002, 52.396534 ], [ 5.018052, 52.396676 ], [ 5.018207, 52.396813 ], [ 5.018347, 52.396853 ], [ 5.018833, 52.396735 ], [ 5.019405, 52.396562 ], [ 5.01953, 52.39646 ], [ 5.019536, 52.396387 ], [ 5.019296, 52.396086 ], [ 5.019336, 52.396004 ], [ 5.019578, 52.396103 ], [ 5.019792, 52.396153 ], [ 5.019953, 52.396179 ], [ 5.020316, 52.396204 ], [ 5.020591, 52.396317 ], [ 5.021308, 52.39666 ], [ 5.021456, 52.396553 ], [ 5.021524, 52.396463 ], [ 5.021605, 52.39643 ], [ 5.02178, 52.396447 ], [ 5.022048, 52.396539 ], [ 5.022341, 52.396827 ], [ 5.022435, 52.396885 ], [ 5.022623, 52.396903 ], [ 5.02273, 52.396845 ], [ 5.022759, 52.396771 ], [ 5.02285, 52.396759 ], [ 5.023229, 52.396789 ], [ 5.02351, 52.39688 ], [ 5.023655, 52.397128 ], [ 5.023868, 52.397132 ], [ 5.024222, 52.397099 ], [ 5.024343, 52.397023 ], [ 5.024384, 52.396966 ], [ 5.024532, 52.396958 ], [ 5.024735, 52.396794 ], [ 5.024936, 52.396728 ], [ 5.025017, 52.396728 ], [ 5.025158, 52.396805 ], [ 5.025546, 52.397166 ], [ 5.025645, 52.397216 ], [ 5.025956, 52.397118 ], [ 5.026089, 52.397127 ], [ 5.026209, 52.397209 ], [ 5.026318, 52.397235 ], [ 5.026439, 52.397128 ], [ 5.02692, 52.397459 ], [ 5.027807, 52.397494 ], [ 5.027701, 52.397287 ], [ 5.028051, 52.397264 ] ], [ [ 5.00972, 52.405299 ], [ 5.009708, 52.405177 ], [ 5.009536, 52.40503 ], [ 5.009451, 52.404981 ], [ 5.00914, 52.404902 ], [ 5.008915, 52.404795 ], [ 5.008677, 52.404754 ], [ 5.00808, 52.404695 ], [ 5.007672, 52.404581 ], [ 5.007141, 52.404497 ], [ 5.006902, 52.404415 ], [ 5.006624, 52.404284 ], [ 5.006331, 52.40404 ], [ 5.006082, 52.404056 ], [ 5.005739, 52.403997 ], [ 5.005454, 52.403989 ], [ 5.005257, 52.403997 ], [ 5.005031, 52.404028 ], [ 5.004778, 52.403978 ], [ 5.004553, 52.403914 ], [ 5.004381, 52.403896 ], [ 5.004104, 52.403757 ], [ 5.003971, 52.403651 ], [ 5.003827, 52.403578 ], [ 5.003522, 52.403432 ], [ 5.003357, 52.403381 ], [ 5.003075, 52.403163 ], [ 5.002787, 52.403121 ], [ 5.002565, 52.40304 ], [ 5.002408, 52.402919 ], [ 5.002254, 52.402917 ], [ 5.001939, 52.402813 ], [ 5.001862, 52.402718 ], [ 5.001665, 52.402701 ], [ 5.001004, 52.402494 ], [ 5.000819, 52.402387 ], [ 5.000383, 52.402264 ], [ 5.000239, 52.402254 ], [ 5.000005, 52.402199 ], [ 4.999807, 52.402141 ], [ 4.999608, 52.402043 ], [ 4.999169, 52.401999 ], [ 4.998854, 52.401886 ], [ 4.998575, 52.401734 ], [ 4.998432, 52.401908 ], [ 4.998307, 52.401923 ], [ 4.997883, 52.401827 ], [ 4.997414, 52.401789 ], [ 4.997156, 52.40184 ], [ 4.996997, 52.401914 ], [ 4.996837, 52.402018 ], [ 4.996563, 52.40239 ], [ 4.996327, 52.40247 ], [ 4.996289, 52.402645 ], [ 4.996487, 52.402709 ], [ 4.996536, 52.403177 ], [ 4.997489, 52.403529 ], [ 4.99774, 52.403607 ], [ 4.997821, 52.403705 ], [ 4.997975, 52.40372 ], [ 4.998509, 52.403874 ], [ 4.998692, 52.403979 ], [ 4.998849, 52.404043 ], [ 4.999044, 52.404076 ], [ 4.999188, 52.404069 ], [ 4.999304, 52.404189 ], [ 4.999435, 52.404229 ], [ 4.999815, 52.404223 ], [ 5.000024, 52.404264 ], [ 5.000167, 52.404352 ], [ 5.000231, 52.404433 ], [ 5.000243, 52.404544 ], [ 5.000419, 52.404613 ], [ 5.00068, 52.404686 ], [ 5.000876, 52.404766 ], [ 5.001083, 52.404967 ], [ 5.001292, 52.405079 ], [ 5.001526, 52.405256 ], [ 5.001659, 52.40541 ], [ 5.002217, 52.405459 ], [ 5.002374, 52.405507 ], [ 5.002542, 52.405612 ], [ 5.002699, 52.405676 ], [ 5.002987, 52.405693 ], [ 5.003051, 52.405749 ], [ 5.003087, 52.405974 ], [ 5.003489, 52.405966 ], [ 5.003741, 52.406 ], [ 5.004447, 52.406219 ], [ 5.004578, 52.406291 ], [ 5.004752, 52.40653 ], [ 5.004962, 52.406726 ], [ 5.005331, 52.406978 ], [ 5.005407, 52.407085 ], [ 5.005419, 52.407198 ], [ 5.005563, 52.407246 ], [ 5.00586, 52.407751 ], [ 5.005964, 52.407784 ], [ 5.006087, 52.407995 ], [ 5.00623, 52.408084 ], [ 5.006384, 52.408285 ], [ 5.006833, 52.408576 ], [ 5.007309, 52.4088 ], [ 5.007386, 52.408851 ], [ 5.007579, 52.408927 ], [ 5.007617, 52.408973 ], [ 5.007631, 52.409044 ], [ 5.00766, 52.409431 ], [ 5.007832, 52.409448 ], [ 5.008005, 52.409303 ], [ 5.008391, 52.409247 ], [ 5.008471, 52.409117 ], [ 5.008633, 52.40898 ], [ 5.008571, 52.408804 ], [ 5.008583, 52.408606 ], [ 5.008517, 52.408444 ], [ 5.008639, 52.408266 ], [ 5.008654, 52.40803 ], [ 5.008507, 52.407973 ], [ 5.008455, 52.40786 ], [ 5.008484, 52.407641 ], [ 5.008592, 52.40748 ], [ 5.008539, 52.407399 ], [ 5.007852, 52.407097 ], [ 5.00796, 52.406894 ], [ 5.00816, 52.406805 ], [ 5.008359, 52.406741 ], [ 5.008466, 52.406587 ], [ 5.008574, 52.40636 ], [ 5.0088, 52.406361 ], [ 5.009051, 52.406394 ], [ 5.009532, 52.405827 ], [ 5.00972, 52.405299 ] ], [ [ 5.047947, 52.409962 ], [ 5.047843, 52.409848 ], [ 5.047858, 52.409615 ], [ 5.047688, 52.409469 ], [ 5.047437, 52.409395 ], [ 5.047438, 52.409283 ], [ 5.047497, 52.409046 ], [ 5.04738, 52.408836 ], [ 5.047039, 52.408634 ], [ 5.046962, 52.408391 ], [ 5.046413, 52.40772 ], [ 5.046046, 52.407612 ], [ 5.045626, 52.407466 ], [ 5.045348, 52.407449 ], [ 5.045281, 52.407562 ], [ 5.04519, 52.407553 ], [ 5.045032, 52.40748 ], [ 5.04494, 52.40735 ], [ 5.044612, 52.407205 ], [ 5.044124, 52.407203 ], [ 5.043846, 52.407219 ], [ 5.043545, 52.40708 ], [ 5.043361, 52.406926 ], [ 5.04327, 52.406725 ], [ 5.043126, 52.406643 ], [ 5.042428, 52.406488 ], [ 5.042099, 52.406471 ], [ 5.041912, 52.406688 ], [ 5.042016, 52.406938 ], [ 5.041895, 52.407165 ], [ 5.041696, 52.407253 ], [ 5.041675, 52.407349 ], [ 5.042018, 52.407672 ], [ 5.043013, 52.408387 ], [ 5.043106, 52.408486 ], [ 5.04312, 52.408638 ], [ 5.043288, 52.408802 ], [ 5.043703, 52.409039 ], [ 5.043809, 52.4092 ], [ 5.043901, 52.409295 ], [ 5.04433, 52.409607 ], [ 5.044683, 52.409777 ], [ 5.044841, 52.409923 ], [ 5.044735, 52.410003 ], [ 5.044721, 52.410092 ], [ 5.044997, 52.410271 ], [ 5.045207, 52.410335 ], [ 5.045405, 52.41036 ], [ 5.045575, 52.410449 ], [ 5.045653, 52.410522 ], [ 5.045838, 52.410579 ], [ 5.045997, 52.410588 ], [ 5.046154, 52.410548 ], [ 5.046354, 52.410451 ], [ 5.04688, 52.410567 ], [ 5.047166, 52.410307 ], [ 5.047431, 52.410226 ], [ 5.047669, 52.410227 ], [ 5.047854, 52.41013 ], [ 5.047947, 52.409962 ] ] ], [ [ [ 5.023898, 52.386783 ], [ 5.023533, 52.386903 ], [ 5.02302, 52.386353 ], [ 5.023057, 52.386318 ], [ 5.022881, 52.386116 ], [ 5.022565, 52.385955 ], [ 5.02121, 52.384434 ], [ 5.020636, 52.383888 ], [ 5.020387, 52.383817 ], [ 5.01956, 52.383987 ], [ 5.019082, 52.383877 ], [ 5.018573, 52.383709 ], [ 5.018304, 52.383377 ], [ 5.017797, 52.382807 ], [ 5.017527, 52.382564 ], [ 5.017625, 52.382149 ], [ 5.017368, 52.38179 ], [ 5.017046, 52.381668 ], [ 5.016814, 52.381322 ], [ 5.016207, 52.38081 ], [ 5.016829, 52.3805 ], [ 5.016596, 52.380331 ], [ 5.016255, 52.379457 ], [ 5.016276, 52.379371 ], [ 5.016195, 52.379274 ], [ 5.015923, 52.378546 ], [ 5.015743, 52.378312 ], [ 5.015885, 52.378246 ], [ 5.015771, 52.378125 ], [ 5.015813, 52.378006 ], [ 5.015617, 52.377817 ], [ 5.015559, 52.377855 ], [ 5.015501, 52.377964 ], [ 5.015521, 52.378044 ], [ 5.015667, 52.378175 ], [ 5.015518, 52.378359 ], [ 5.015559, 52.378425 ], [ 5.015548, 52.378501 ], [ 5.015276, 52.378526 ], [ 5.015193, 52.378666 ], [ 5.015078, 52.378666 ], [ 5.0148, 52.378237 ], [ 5.01475, 52.377873 ], [ 5.014407, 52.377757 ], [ 5.014103, 52.376754 ], [ 5.014169, 52.376327 ], [ 5.013992, 52.375758 ], [ 5.01382, 52.375572 ], [ 5.013691, 52.374908 ], [ 5.014174, 52.374526 ], [ 5.014193, 52.374418 ], [ 5.0143, 52.374418 ], [ 5.014489, 52.374468 ], [ 5.014758, 52.374741 ], [ 5.014801, 52.37488 ], [ 5.015442, 52.375856 ], [ 5.015703, 52.376318 ], [ 5.016822, 52.378068 ], [ 5.018519, 52.380553 ], [ 5.018627, 52.380634 ], [ 5.020782, 52.383329 ], [ 5.023898, 52.386783 ] ] ], [ [ [ 5.014718, 52.37268 ], [ 5.01451, 52.373021 ], [ 5.013519, 52.373044 ], [ 5.013354, 52.373068 ], [ 5.013207, 52.373067 ], [ 5.013007, 52.372985 ], [ 5.013027, 52.372821 ], [ 5.012595, 52.372523 ], [ 5.012587, 52.372262 ], [ 5.01273, 52.372145 ], [ 5.0132, 52.371653 ], [ 5.013953, 52.371668 ], [ 5.014328, 52.371777 ], [ 5.014471, 52.371907 ], [ 5.014591, 52.372104 ], [ 5.014718, 52.37268 ] ] ] ] } }
]
}
