{
"type": "FeatureCollection",
"name": "SMPs-Terschelling",
"crs": { "type": "name", "properties": { "name": "urn:ogc:def:crs:OGC:1.3:CRS84" } },
"features": [
{ "type": "Feature", "properties": { "Wijk": "West-Terschelling" }, "geometry": { "type": "LineString", "coordinates": [ [ 5.243, 53.366 ], [ 5.221, 53.364 ], [ 5.211, 53.356 ], [ 5.207, 53.366 ], [ 5.218, 53.37 ], [ 5.236, 53.37 ], [ 5.243, 53.366 ] ] } },
{ "type": "Feature", "properties": { "Wijk": "Verspreide huizen West-Terschelling" }, "geometry": { "type": "LineString", "coordinates": [ [ 5.257, 53.373 ], [ 5.243, 53.366 ], [ 5.236, 53.37 ], [ 5.218, 53.37 ], [ 5.207, 53.366 ], [ 5.211, 53.356 ], [ 5.191, 53.348 ], [ 5.151, 53.35 ], [ 5.165, 53.37 ], [ 5.186, 53.388 ], [ 5.201, 53.395 ], [ 5.251, 53.404 ], [ 5.251, 53.383 ], [ 5.257, 53.373 ] ] } },
{ "type": "Feature", "properties": { "Wijk": "Midsland" }, "geometry": { "type": "LineString", "coordinates": [ [ 5.293, 53.385 ], [ 5.283, 53.379 ], [ 5.28, 53.384 ], [ 5.293, 53.385 ] ] } },
{ "type": "Feature", "properties": { "Wijk": "Verspreide huizen Midsland-Zuid" }, "geometry": { "type": "MultiLineString", "coordinates": [ [ [ 5.302, 53.392 ], [ 5.3, 53.376 ], [ 5.293, 53.37 ], [ 5.275, 53.373 ], [ 5.257, 53.373 ], [ 5.251, 53.383 ], [ 5.264, 53.389 ], [ 5.288, 53.393 ], [ 5.302, 53.392 ] ], [ [ 5.293, 53.385 ], [ 5.28, 53.384 ], [ 5.283, 53.379 ], [ 5.293, 53.385 ] ] ] } },
{ "type": "Feature", "properties": { "Wijk": "Verspreide huizen Midsland-Noord" }, "geometry": { "type": "LineString", "coordinates": [ [ 5.301, 53.393 ], [ 5.302, 53.392 ], [ 5.288, 53.393 ], [ 5.264, 53.389 ], [ 5.251, 53.383 ], [ 5.251, 53.404 ], [ 5.297, 53.411 ], [ 5.301, 53.393 ] ] } },
{ "type": "Feature", "properties": { "Wijk": "Formerum" }, "geometry": { "type": "LineString", "coordinates": [ [ 5.319, 53.391 ], [ 5.318, 53.389 ], [ 5.306, 53.387 ], [ 5.303, 53.39 ], [ 5.319, 53.391 ] ] } },
{ "type": "Feature", "properties": { "Wijk": "Verspreide huizen Formerum-Zuid" }, "geometry": { "type": "LineString", "coordinates": [ [ 5.318, 53.395 ], [ 5.319, 53.391 ], [ 5.303, 53.39 ], [ 5.306, 53.387 ], [ 5.318, 53.389 ], [ 5.329, 53.38 ], [ 5.313, 53.38 ], [ 5.3, 53.376 ], [ 5.302, 53.392 ], [ 5.301, 53.393 ], [ 5.318, 53.395 ] ] } },
{ "type": "Feature", "properties": { "Wijk": "Verspreide huizen Formerum-Noord" }, "geometry": { "type": "LineString", "coordinates": [ [ 5.321, 53.395 ], [ 5.319, 53.395 ], [ 5.318, 53.395 ], [ 5.301, 53.393 ], [ 5.297, 53.411 ], [ 5.314, 53.414 ], [ 5.321, 53.395 ] ] } },
{ "type": "Feature", "properties": { "Wijk": "Lies" }, "geometry": { "type": "LineString", "coordinates": [ [ 5.332, 53.394 ], [ 5.319, 53.395 ], [ 5.321, 53.395 ], [ 5.331, 53.397 ], [ 5.332, 53.394 ] ] } },
{ "type": "Feature", "properties": { "Wijk": "Verspreide huizen Lies-Zuid" }, "geometry": { "type": "LineString", "coordinates": [ [ 5.332, 53.394 ], [ 5.35, 53.385 ], [ 5.329, 53.38 ], [ 5.318, 53.389 ], [ 5.319, 53.391 ], [ 5.318, 53.395 ], [ 5.319, 53.395 ], [ 5.332, 53.394 ] ] } },
{ "type": "Feature", "properties": { "Wijk": "Koegelwieck" }, "geometry": { "type": "LineString", "coordinates": [ [ 5.366, 53.403 ], [ 5.347, 53.4 ], [ 5.335, 53.398 ], [ 5.331, 53.397 ], [ 5.321, 53.395 ], [ 5.314, 53.414 ], [ 5.364, 53.422 ], [ 5.368, 53.415 ], [ 5.366, 53.403 ] ] } },
{ "type": "Feature", "properties": { "Wijk": "Hoorn" }, "geometry": { "type": "LineString", "coordinates": [ [ 5.335, 53.398 ], [ 5.347, 53.4 ], [ 5.342, 53.394 ], [ 5.335, 53.398 ] ] } },
{ "type": "Feature", "properties": { "Wijk": "Verspreide huizen Hoorn-Zuid" }, "geometry": { "type": "LineString", "coordinates": [ [ 5.372, 53.397 ], [ 5.35, 53.385 ], [ 5.332, 53.394 ], [ 5.331, 53.397 ], [ 5.335, 53.398 ], [ 5.342, 53.394 ], [ 5.347, 53.4 ], [ 5.366, 53.403 ], [ 5.372, 53.397 ] ] } },
{ "type": "Feature", "properties": { "Wijk": "Oosterend" }, "geometry": { "type": "LineString", "coordinates": [ [ 5.373, 53.405 ], [ 5.385, 53.406 ], [ 5.38, 53.403 ], [ 5.373, 53.405 ] ] } },
{ "type": "Feature", "properties": { "Wijk": "Verspreide huizen Oosterend-Zuid" }, "geometry": { "type": "LineString", "coordinates": [ [ 5.428, 53.404 ], [ 5.404, 53.405 ], [ 5.384, 53.402 ], [ 5.372, 53.397 ], [ 5.366, 53.403 ], [ 5.373, 53.405 ], [ 5.38, 53.403 ], [ 5.385, 53.406 ], [ 5.402, 53.41 ], [ 5.424, 53.408 ], [ 5.428, 53.404 ] ] } },
{ "type": "Feature", "properties": { "Wijk": "De Boschplaat" }, "geometry": { "type": "LineString", "coordinates": [ [ 5.428, 53.404 ], [ 5.424, 53.408 ], [ 5.402, 53.41 ], [ 5.385, 53.406 ], [ 5.373, 53.405 ], [ 5.366, 53.403 ], [ 5.368, 53.415 ], [ 5.364, 53.422 ], [ 5.376, 53.423 ], [ 5.473, 53.441 ], [ 5.495, 53.444 ], [ 5.526, 53.443 ], [ 5.543, 53.439 ], [ 5.541, 53.433 ], [ 5.511, 53.428 ], [ 5.476, 53.417 ], [ 5.47, 53.407 ], [ 5.459, 53.405 ], [ 5.428, 53.404 ] ] } }
]
}
